{"type":"FeatureCollection","features":[{"type":"Feature","properties":{"name":"Sidoarjo","official_name":"Kabupaten Sidoarjo","admin_level":"5","boundary":"administrative"},"geometry":{"type":"MultiPolygon","coordinates":[[[[112.8698176,-7.5660457],[112.869843,-7.5662525],[112.8701127,-7.5670022],[112.8706117,-7.5681408],[112.8709421,-7.5693346],[112.871074,-7.5699647],[112.8710585,-7.5720195],[112.8707148,-7.573503],[112.8704041,-7.5746936],[112.8704088,-7.5755473],[112.8704983,-7.5760092],[112.8706874,-7.5763139],[112.8710045,-7.5764721],[112.8714377,-7.5766709],[112.8718135,-7.5767952],[112.8724451,-7.5769408],[112.8731669,-7.5769414],[112.8737016,-7.5769692],[112.8739395,-7.5770523],[112.8744739,-7.5771277],[112.8766251,-7.5774937],[112.8812494,-7.5781187],[112.8815822,-7.578107],[112.8817588,-7.57802],[112.8818446,-7.5777115],[112.8818187,-7.5775564],[112.8817359,-7.5774013],[112.8814354,-7.5770468],[112.8811004,-7.5767024],[112.880586,-7.5762535],[112.8796005,-7.5754204],[112.8786186,-7.5745539],[112.8778366,-7.5738624],[112.8765285,-7.5728247],[112.8800682,-7.5752239],[112.880774,-7.5756592],[112.8813017,-7.5758589],[112.8817169,-7.5758498],[112.8819605,-7.5756334],[112.8821965,-7.5752682],[112.8823306,-7.5748849],[112.8824983,-7.5742883],[112.8825806,-7.5737924],[112.8825458,-7.5733101],[112.8823596,-7.5726321],[112.8821982,-7.5721035],[112.8819372,-7.5716757],[112.8816879,-7.571445],[112.8813716,-7.5712667],[112.8797952,-7.5705686],[112.8798339,-7.5702438],[112.8802229,-7.5702067],[112.8809551,-7.5700978],[112.8819181,-7.5699831],[112.8825516,-7.5696018],[112.8830154,-7.5691157],[112.8832703,-7.5686088],[112.8834025,-7.5681233],[112.8834192,-7.5673667],[112.8833764,-7.5664926],[112.8832703,-7.5658477],[112.8830195,-7.5653571],[112.882671,-7.5646826],[112.8823151,-7.564166],[112.8816591,-7.5636349],[112.8809978,-7.5633709],[112.8805892,-7.5633404],[112.879966,-7.5635172],[112.8791089,-7.5639941],[112.8783804,-7.5644762],[112.8775947,-7.5651645],[112.8767991,-7.5658256],[112.8763541,-7.5662868],[112.8753451,-7.5666891],[112.8743377,-7.5664387],[112.8734305,-7.566042],[112.872591,-7.5655985],[112.8717381,-7.5652056],[112.8702414,-7.564461],[112.8700135,-7.5644852],[112.8698485,-7.5646149],[112.8698052,-7.5647865],[112.8697471,-7.5654021],[112.8698176,-7.5660457]]],[[[112.6679188,-7.3510317],[112.6677017,-7.3510326],[112.6655349,-7.3514026],[112.6645692,-7.3514405],[112.6637649,-7.351404],[112.6631469,-7.351301],[112.6623611,-7.3516072],[112.6617965,-7.3522151],[112.6611938,-7.3528088],[112.6607818,-7.353083],[112.6597976,-7.353587],[112.6591491,-7.3537863],[112.6585998,-7.3540157],[112.6577377,-7.3551558],[112.657196,-7.3560365],[112.6560439,-7.3574503],[112.6552276,-7.3580902],[112.6545791,-7.3585017],[112.6541671,-7.3588975],[112.653984,-7.3597282],[112.653923,-7.3614267],[112.6537093,-7.3619884],[112.6536331,-7.3620399],[112.6536311,-7.3620411],[112.6534194,-7.3621786],[112.6525573,-7.3620618],[112.6514434,-7.3615287],[112.6507186,-7.3611949],[112.6498412,-7.3610834],[112.6488113,-7.3612426],[112.6478652,-7.3615993],[112.6468887,-7.3618816],[112.6456908,-7.3618096],[112.6456898,-7.3618091],[112.6451415,-7.3615311],[112.6438216,-7.3609808],[112.6427078,-7.3608125],[112.6420135,-7.3610834],[112.6410216,-7.3619865],[112.6404876,-7.3626202],[112.6397018,-7.363159],[112.6383972,-7.3636425],[112.6364974,-7.3637646],[112.6357879,-7.3638051],[112.6351013,-7.3640564],[112.6337814,-7.3650378],[112.6328201,-7.3660944],[112.6325181,-7.3663483],[112.6325149,-7.366351],[112.632019,-7.3667673],[112.6315612,-7.3670367],[112.6311797,-7.367287],[112.6302413,-7.3677882],[112.6289367,-7.36808],[112.6284713,-7.3680628],[112.6281661,-7.3679875],[112.627304,-7.3677605],[112.6263198,-7.3673433],[112.6257476,-7.3669813],[112.6253601,-7.3668303],[112.6253585,-7.3668297],[112.6249999,-7.3668064],[112.6246795,-7.3669046],[112.6240539,-7.3671797],[112.62368,-7.3673762],[112.6232909,-7.3676508],[112.6230773,-7.3678468],[112.6227264,-7.3679651],[112.6223373,-7.3680056],[112.6219787,-7.368007],[112.6215896,-7.3680085],[112.6212005,-7.3678926],[112.6206283,-7.3675827],[112.6199645,-7.3670972],[112.6193542,-7.3666895],[112.6187133,-7.3664578],[112.6182403,-7.366362],[112.6178512,-7.366422],[112.6174163,-7.3665212],[112.6167526,-7.3667577],[112.6158218,-7.367288],[112.6152724,-7.367719],[112.6149522,-7.3679044],[112.6146392,-7.3680876],[112.6139983,-7.3683971],[112.6131286,-7.3687352],[112.6119842,-7.368851],[112.6111144,-7.3689097],[112.610527,-7.3690237],[112.6097182,-7.3691939],[112.608406,-7.3695896],[112.6073989,-7.3699001],[112.6062774,-7.3702668],[112.605606,-7.3705762],[112.6049346,-7.3708299],[112.6042404,-7.370972],[112.6033706,-7.3710588],[112.6033697,-7.3710587],[112.6026992,-7.3710054],[112.6013259,-7.3708986],[112.6004867,-7.3708461],[112.6002007,-7.3708838],[112.6001968,-7.3708843],[112.5998458,-7.3709601],[112.5995635,-7.3710445],[112.5992584,-7.3711575],[112.5988921,-7.3713263],[112.5984191,-7.3716348],[112.5974731,-7.3720292],[112.5968246,-7.3721708],[112.596321,-7.3721727],[112.595848,-7.3720626],[112.5954818,-7.3720358],[112.5949249,-7.3719824],[112.5945358,-7.3720115],[112.5938339,-7.3721813],[112.5932998,-7.3722671],[112.5927123,-7.3722971],[112.5923767,-7.3722146],[112.5915679,-7.3718547],[112.5912322,-7.3716048],[112.5909499,-7.3713826],[112.5907516,-7.3711318],[112.5905837,-7.3707975],[112.5904159,-7.3704909],[112.5900497,-7.3702691],[112.5895995,-7.3701032],[112.5889282,-7.3701056],[112.5885086,-7.3703025],[112.5882568,-7.370694],[112.5881194,-7.371169],[112.588211,-7.3718666],[112.5882644,-7.3724244],[112.5884094,-7.3733452],[112.5885009,-7.3745173],[112.5884475,-7.3749999],[112.588272,-7.3756011],[112.5880202,-7.3761533],[112.5877837,-7.3765782],[112.5875091,-7.3769396],[112.5871734,-7.3773435],[112.586769,-7.3776845],[112.5864105,-7.3779615],[112.5859451,-7.3781961],[112.5854568,-7.3784526],[112.5849456,-7.3787511],[112.5845641,-7.3789433],[112.5843734,-7.379156],[112.5840377,-7.3796876],[112.5838241,-7.3802818],[112.5837859,-7.3807701],[112.5837859,-7.381215],[112.5838699,-7.3816389],[112.5840224,-7.3820413],[112.5840453,-7.3823803],[112.5840453,-7.3827199],[112.5839614,-7.3829745],[112.5837478,-7.3832086],[112.5835571,-7.3833788],[112.5832442,-7.3834647],[112.5829467,-7.3834661],[112.5819854,-7.3833631],[112.5812225,-7.3833235],[112.580841,-7.3833035],[112.5803527,-7.3833693],[112.5798187,-7.3835405],[112.5793761,-7.3836692],[112.5791396,-7.3838824],[112.5789718,-7.3840736],[112.5788192,-7.3843287],[112.578804,-7.3846468],[112.5788269,-7.3851346],[112.5787811,-7.3857706],[112.5787048,-7.3864497],[112.5785522,-7.3868106],[112.5783462,-7.3870872],[112.5782089,-7.3872059],[112.5782076,-7.3872071],[112.5781326,-7.3872789],[112.5777664,-7.3874286],[112.5773849,-7.3875359],[112.5771102,-7.3876028],[112.5769424,-7.3876437],[112.5763244,-7.3877514],[112.576004,-7.3878401],[112.575859,-7.3878807],[112.5756073,-7.3879875],[112.5753478,-7.3881582],[112.5750503,-7.3883713],[112.5747528,-7.388584],[112.5745239,-7.388903],[112.5743713,-7.389243],[112.5742034,-7.3896464],[112.5740585,-7.3900074],[112.5739745,-7.3903259],[112.5738067,-7.390581],[112.5734863,-7.3909214],[112.5730819,-7.3912409],[112.5726165,-7.3915604],[112.5720443,-7.3918809],[112.5718154,-7.3919877],[112.5713882,-7.3919042],[112.5710678,-7.3915871],[112.5705795,-7.3905657],[112.5705032,-7.3904236],[112.5704421,-7.3902958],[112.5703658,-7.3900622],[112.5703429,-7.38985],[112.5703048,-7.3894866],[112.570259,-7.3890885],[112.5701675,-7.3883728],[112.5700683,-7.3880471],[112.5700149,-7.3879794],[112.5698928,-7.3878687],[112.5697173,-7.3877715],[112.5694579,-7.3876661],[112.5694274,-7.3876542],[112.5692367,-7.3876122],[112.569107,-7.387605],[112.5689163,-7.387626],[112.5683898,-7.3877371],[112.5679779,-7.3878678],[112.5678405,-7.3879126],[112.5678329,-7.3880561],[112.5675048,-7.3887356],[112.567398,-7.3889559],[112.5672149,-7.3892716],[112.5671691,-7.389386],[112.5671004,-7.3895787],[112.5669708,-7.3901132],[112.5669021,-7.3904422],[112.5669403,-7.391024],[112.5669631,-7.3913716],[112.5669784,-7.3915385],[112.5670471,-7.3922375],[112.567543,-7.3934019],[112.5677184,-7.3943132],[112.5677642,-7.3949917],[112.5678329,-7.395861],[112.56781,-7.3963698],[112.5677642,-7.396582],[112.5675964,-7.396922],[112.5673471,-7.397259],[112.5673446,-7.3972624],[112.566986,-7.3976029],[112.5666046,-7.3977951],[112.5662841,-7.3979233],[112.5657501,-7.3980735],[112.5651092,-7.3982013],[112.5648825,-7.3982465],[112.5639495,-7.3983983],[112.5631637,-7.3984855],[112.5624847,-7.3985728],[112.561737,-7.3987025],[112.5614394,-7.3988522],[112.5609283,-7.3991297],[112.56044,-7.3993433],[112.5599136,-7.399536],[112.5590209,-7.3997301],[112.5586547,-7.3997315],[112.5579757,-7.3995851],[112.5574493,-7.3994597],[112.5568466,-7.3994406],[112.556343,-7.3994425],[112.555809,-7.3995718],[112.5552368,-7.3997434],[112.5548553,-7.3999566],[112.554428,-7.4001278],[112.5536193,-7.4003003],[112.5528106,-7.4003881],[112.5523452,-7.4003895],[112.551918,-7.4005392],[112.5515823,-7.4007739],[112.5513076,-7.4010504],[112.5510711,-7.4014753],[112.5507354,-7.4021128],[112.5504226,-7.402644],[112.5499725,-7.4030274],[112.5494842,-7.4033469],[112.5490188,-7.4035819],[112.5484466,-7.4037961],[112.5476608,-7.4040321],[112.5468978,-7.4041832],[112.5452346,-7.4044646],[112.5443649,-7.4046586],[112.5439529,-7.4047111],[112.5434341,-7.4046405],[112.5427322,-7.4044307],[112.5420074,-7.404179],[112.5410079,-7.4038008],[112.540388,-7.4035894],[112.5400085,-7.4034861],[112.5396652,-7.4035085],[112.5392379,-7.4035099],[112.5387954,-7.4034479],[112.5382156,-7.4033011],[112.537796,-7.4031118],[112.5371093,-7.4028176],[112.5367278,-7.4026493],[112.5364532,-7.402438],[112.535942,-7.4020155],[112.5355987,-7.4016565],[112.5352325,-7.4014033],[112.5347442,-7.4011291],[112.534233,-7.4008764],[112.5338745,-7.4008139],[112.5336151,-7.4008149],[112.5332107,-7.4009436],[112.5325775,-7.4012216],[112.532135,-7.4014987],[112.5318374,-7.4017967],[112.5314102,-7.4023493],[112.5309448,-7.402881],[112.5304183,-7.4033068],[112.530075,-7.4035629],[112.5296325,-7.4036702],[112.5292282,-7.4036716],[112.5289688,-7.4035243],[112.5286331,-7.4032072],[112.5284118,-7.4028262],[112.52816,-7.4020422],[112.5279006,-7.4013646],[112.5276183,-7.400772],[112.5274047,-7.400391],[112.5271911,-7.3996919],[112.5269164,-7.3990144],[112.526657,-7.3984212],[112.5265139,-7.3981354],[112.5263366,-7.397765],[112.5261001,-7.3974479],[112.5259323,-7.3973001],[112.5256957,-7.3972157],[112.525505,-7.3971952],[112.5250549,-7.3972391],[112.5246124,-7.3974527],[112.5240631,-7.3976878],[112.5237197,-7.3979014],[112.5233612,-7.398178],[112.5230178,-7.3984336],[112.5226211,-7.3988594],[112.5220489,-7.3993701],[112.5215988,-7.3998383],[112.520668,-7.4003714],[112.5202865,-7.400585],[112.5198211,-7.4006923],[112.5189666,-7.400844],[112.5183105,-7.4009098],[112.5179672,-7.4009532],[112.5176086,-7.4010819],[112.5171814,-7.4012531],[112.5166931,-7.4015091],[112.5161895,-7.4017228],[112.515892,-7.4018301],[112.5154189,-7.4018949],[112.514656,-7.4020885],[112.5143203,-7.4022807],[112.5138092,-7.4025367],[112.513153,-7.4028996],[112.5126876,-7.4031657],[112.5120086,-7.403561],[112.5110473,-7.4042848],[112.5106048,-7.4046682],[112.5100326,-7.4051369],[112.5096282,-7.4054559],[112.5093536,-7.4056266],[112.5088043,-7.4058193],[112.5083312,-7.4059695],[112.5081024,-7.4060553],[112.507843,-7.4061407],[112.507698,-7.4062685],[112.5074462,-7.4065241],[112.5069961,-7.4067377],[112.5064239,-7.4068664],[112.5060806,-7.4068679],[112.5054244,-7.4068912],[112.504486,-7.4067882],[112.5040664,-7.4066623],[112.503662,-7.4066004],[112.503128,-7.4065384],[112.5026779,-7.4065188],[112.5023193,-7.4065836],[112.5018081,-7.4067339],[112.501213,-7.4068841],[112.5009612,-7.4069274],[112.5006408,-7.4069499],[112.5001144,-7.4068645],[112.4999999,-7.4068087],[112.4995727,-7.4067415],[112.4989776,-7.4067548],[112.4983596,-7.4070962],[112.497734,-7.4076656],[112.4972534,-7.4080132],[112.4970321,-7.4081062],[112.4963989,-7.4081138],[112.4958953,-7.4080666],[112.4953307,-7.4081],[112.4947738,-7.4083704],[112.4939956,-7.4089812],[112.4936828,-7.4092525],[112.4929733,-7.4099001],[112.4924239,-7.4102238],[112.4917983,-7.4102887],[112.4912109,-7.4101275],[112.4901886,-7.4097193],[112.4889144,-7.4093798],[112.4876861,-7.4091066],[112.4872757,-7.4090783],[112.4862747,-7.4090093],[112.4850616,-7.4092249],[112.4841689,-7.4097565],[112.4835128,-7.4103254],[112.4828706,-7.4110835],[112.4829711,-7.411476],[112.4832,-7.4122118],[112.4832249,-7.4138091],[112.4832305,-7.4141558],[112.4836044,-7.4154338],[112.4837264,-7.41654],[112.4835433,-7.4170445],[112.4828338,-7.4178484],[112.4822158,-7.4189309],[112.4817428,-7.4193009],[112.4809036,-7.4195641],[112.4800872,-7.4196795],[112.4794997,-7.4197448],[112.4788665,-7.4201974],[112.4781799,-7.4209822],[112.4775542,-7.421554],[112.4769897,-7.4218501],[112.4762496,-7.4223035],[112.4748382,-7.4233526],[112.4738769,-7.4242118],[112.4735946,-7.4247121],[112.4735412,-7.4253863],[112.4736785,-7.4263524],[112.4737554,-7.4266282],[112.4738117,-7.4268637],[112.4740676,-7.4278601],[112.4739761,-7.4284414],[112.4734725,-7.4291133],[112.4720535,-7.4298862],[112.4716186,-7.4300307],[112.4704361,-7.4304236],[112.4690551,-7.4307331],[112.4684066,-7.4311513],[112.4673156,-7.4316028],[112.4660949,-7.4315752],[112.4647369,-7.4314078],[112.4637832,-7.4313983],[112.4632568,-7.4314812],[112.4622116,-7.4321388],[112.4621461,-7.4322666],[112.461914,-7.4327191],[112.4616012,-7.4340361],[112.4615478,-7.4349335],[112.4613418,-7.4352835],[112.46109,-7.4355053],[112.4601593,-7.4359668],[112.4598388,-7.4362534],[112.4594497,-7.4371608],[112.4593505,-7.4376186],[112.4594421,-7.4380416],[112.4595718,-7.4387745],[112.4596953,-7.4391709],[112.4598007,-7.4394921],[112.4596481,-7.4400805],[112.4592712,-7.440634],[112.4589004,-7.4413222],[112.4582901,-7.44218],[112.4577393,-7.4426412],[112.4574127,-7.4436415],[112.4570901,-7.4445414],[112.456832,-7.445552],[112.4568099,-7.4463738],[112.4566879,-7.4469694],[112.4568368,-7.4469406],[112.4570999,-7.4468897],[112.4581985,-7.4467658],[112.4590749,-7.4466508],[112.4598083,-7.4465889],[112.4608917,-7.4463543],[112.4614795,-7.4461841],[112.4621887,-7.4459981],[112.4636822,-7.445384],[112.4649142,-7.4451163],[112.4655187,-7.4449768],[112.4664001,-7.4448994],[112.4673385,-7.4449347],[112.4686431,-7.4452909],[112.4694747,-7.4458941],[112.4704437,-7.4469517],[112.4713744,-7.447925],[112.472557,-7.4488333],[112.4734954,-7.4494489],[112.4746856,-7.4501032],[112.4756088,-7.4504455],[112.479309,-7.4533561],[112.4802322,-7.4541701],[112.4817352,-7.4554046],[112.4828338,-7.456292],[112.4842224,-7.4571732],[112.4849823,-7.4577093],[112.4855422,-7.4581593],[112.4867172,-7.4589628],[112.4880599,-7.4597372],[112.488594,-7.4599494],[112.4898376,-7.4601968],[112.491516,-7.460389],[112.4927012,-7.4605208],[112.4944457,-7.4608024],[112.4957351,-7.4611605],[112.497261,-7.4615882],[112.4987945,-7.4619011],[112.4999999,-7.4619158],[112.5002899,-7.4619459],[112.5017165,-7.4622558],[112.5030135,-7.462294],[112.5036315,-7.4622916],[112.5045013,-7.4623312],[112.5051574,-7.4624136],[112.5054855,-7.4624785],[112.5054899,-7.4624805],[112.5062026,-7.4628133],[112.5067977,-7.4631718],[112.5075225,-7.4637416],[112.5078332,-7.4639666],[112.5080184,-7.4641007],[112.5085677,-7.4645866],[112.5091857,-7.4650296],[112.5101241,-7.4656628],[112.5107421,-7.4660424],[112.5111502,-7.4663388],[112.511383,-7.4665063],[112.511991,-7.4668898],[112.5128212,-7.4669426],[112.5137863,-7.4669651],[112.5147247,-7.467089],[112.515213,-7.467151],[112.5164642,-7.467295],[112.5176162,-7.4673332],[112.5189971,-7.4674133],[112.5195693,-7.4674114],[112.5198669,-7.4674529],[112.5198697,-7.4674536],[112.5205307,-7.4676202],[112.5214691,-7.4678925],[112.5224227,-7.4681862],[112.5231475,-7.4683961],[112.5239334,-7.4686478],[112.5247421,-7.4688781],[112.5250854,-7.4690255],[112.525299,-7.4690035],[112.5260009,-7.4690221],[112.5266342,-7.4690202],[112.5268936,-7.4690403],[112.5273361,-7.4690813],[112.5282128,-7.4692009],[112.5285873,-7.4692281],[112.5300903,-7.4695328],[112.5307846,-7.4697684],[112.5317153,-7.4700988],[112.5317194,-7.4701008],[112.5321502,-7.4703115],[112.5326309,-7.4706906],[112.5331268,-7.4709509],[112.5335617,-7.4711164],[112.5340652,-7.4712099],[112.5346832,-7.4711836],[112.5354232,-7.4711336],[112.5360946,-7.4709881],[112.5365676,-7.4708914],[112.5369033,-7.4708189],[112.5373306,-7.4707697],[112.5377349,-7.4707206],[112.5383834,-7.4707182],[112.538597,-7.4707178],[112.5386004,-7.4707177],[112.5386657,-7.4707173],[112.5390243,-7.4708112],[112.5394821,-7.4709767],[112.5401763,-7.4713315],[112.5404105,-7.4714473],[112.5409393,-7.4717096],[112.5415191,-7.4720172],[112.5422058,-7.4722174],[112.5422103,-7.4722187],[112.5423989,-7.4722687],[112.5431136,-7.472464],[112.5435485,-7.4726056],[112.5441665,-7.4726986],[112.5450515,-7.4727906],[112.5457229,-7.4728359],[112.5461959,-7.4728106],[112.5468902,-7.4728321],[112.5474166,-7.4728778],[112.5483932,-7.4731125],[112.5497818,-7.4733695],[112.550621,-7.4736045],[112.5513153,-7.4738639],[112.5518875,-7.4741005],[112.5526046,-7.4743837],[112.5531997,-7.4746197],[112.5536575,-7.4747609],[112.5541839,-7.474902],[112.554779,-7.4750427],[112.5550689,-7.4751132],[112.5554733,-7.475159],[112.5559463,-7.4751576],[112.5567855,-7.4751786],[112.5573806,-7.4752239],[112.5582656,-7.4753159],[112.5591277,-7.4754794],[112.5598949,-7.47571],[112.5602101,-7.4756516],[112.5602325,-7.4754443],[112.5610807,-7.475269],[112.5616432,-7.4752078],[112.5622831,-7.4752488],[112.5627896,-7.4752916],[112.5639459,-7.4757518],[112.5646038,-7.4759867],[112.5649985,-7.4761483],[112.5653197,-7.4762473],[112.5658822,-7.4764891],[112.5662734,-7.476772],[112.5669941,-7.4772726],[112.5675093,-7.4776017],[112.5679375,-7.4779132],[112.5689398,-7.4782269],[112.5695657,-7.478277],[112.57007,-7.4781126],[112.5704375,-7.4782536],[112.5707046,-7.478525],[112.5711237,-7.4791865],[112.5714573,-7.4799168],[112.5716056,-7.4801779],[112.571863,-7.4807356],[112.5722334,-7.4814363],[112.5722351,-7.4814356],[112.5725402,-7.4820355],[112.5725555,-7.4820846],[112.572586,-7.4822258],[112.572647,-7.4824957],[112.5727539,-7.4827341],[112.5728988,-7.4830092],[112.5730285,-7.4831627],[112.5731582,-7.4833048],[112.5732116,-7.4833616],[112.5733184,-7.4834069],[112.5735321,-7.4834579],[112.5737686,-7.4834541],[112.5746917,-7.4832104],[112.5749206,-7.4831751],[112.5751571,-7.4831971],[112.5754318,-7.4832729],[112.5755691,-7.483353],[112.5758056,-7.4835771],[112.5760726,-7.4837454],[112.5761871,-7.4837917],[112.5763091,-7.4838375],[112.5765533,-7.4839061],[112.5767516,-7.4839586],[112.5768432,-7.4839776],[112.5770111,-7.4839953],[112.5774078,-7.48395],[112.5775985,-7.4839643],[112.5778197,-7.4840373],[112.5779952,-7.4841474],[112.578186,-7.4844159],[112.5786132,-7.485289],[112.5787963,-7.4856175],[112.5789794,-7.485833],[112.5794219,-7.4860652],[112.5794906,-7.4860972],[112.5798187,-7.4862722],[112.579956,-7.48639],[112.5799941,-7.4864295],[112.5800552,-7.4866327],[112.5801009,-7.4868191],[112.5800933,-7.487027],[112.5799712,-7.4875096],[112.5798873,-7.4878577],[112.5798339,-7.4882301],[112.5798797,-7.4886864],[112.5799407,-7.4889415],[112.5803833,-7.4897345],[112.5804366,-7.4898351],[112.580827,-7.4903732],[112.5809326,-7.4905113],[112.5809554,-7.4905547],[112.5809783,-7.4906081],[112.581108,-7.4907464],[112.5811843,-7.4908284],[112.5814712,-7.4914219],[112.5820617,-7.4921864],[112.5826339,-7.4926604],[112.5834502,-7.4930862],[112.5843582,-7.4935354],[112.5843618,-7.4935367],[112.5850067,-7.4937709],[112.5856781,-7.4939354],[112.5861511,-7.4939574],[112.586769,-7.4939316],[112.5872955,-7.4938343],[112.5879897,-7.4936889],[112.5885162,-7.4936393],[112.589302,-7.4936365],[112.5897292,-7.4936589],[112.590332,-7.4938234],[112.5913085,-7.4942006],[112.5925826,-7.4949583],[112.5933227,-7.4954794],[112.5940856,-7.496167],[112.5949477,-7.4969739],[112.5960769,-7.4982317],[112.5967254,-7.4991582],[112.5972518,-7.5000003],[112.5975036,-7.5003565],[112.5978088,-7.500851],[112.5980485,-7.5012828],[112.600608,-7.5000334],[112.6026562,-7.5003579],[112.603088,-7.5007408],[112.6034082,-7.5015131],[112.6036406,-7.5018763],[112.603956,-7.5019419],[112.6044908,-7.5022619],[112.6047054,-7.5026768],[112.6047859,-7.5031475],[112.6046276,-7.5038336],[112.6045981,-7.5041075],[112.6050227,-7.5044003],[112.6052472,-7.5046287],[112.6054186,-7.5056814],[112.6056405,-7.5062278],[112.6058722,-7.5063385],[112.6061471,-7.5063473],[112.6068797,-7.5063025],[112.6080032,-7.5063267],[112.6086722,-7.5067511],[112.6092788,-7.5075445],[112.6092807,-7.5075448],[112.6094104,-7.5078552],[112.6096698,-7.5084226],[112.6098681,-7.5088213],[112.6101275,-7.5094331],[112.610364,-7.5095952],[112.6105014,-7.5096853],[112.6109592,-7.5099819],[112.6111117,-7.5102303],[112.6113711,-7.5106042],[112.6116839,-7.5108474],[112.6119281,-7.5109609],[112.61263,-7.5112574],[112.612836,-7.5114377],[112.6130115,-7.5116709],[112.6132861,-7.5120562],[112.6137744,-7.5127084],[112.6138049,-7.5128987],[112.6137515,-7.5132482],[112.6137362,-7.5134242],[112.6137897,-7.5136941],[112.6139575,-7.5140193],[112.614133,-7.5142415],[112.6144076,-7.5144651],[112.6147891,-7.5147908],[112.6149951,-7.5150445],[112.6154071,-7.5155256],[112.615697,-7.5158208],[112.6160251,-7.5161498],[112.6165515,-7.5166433],[112.6168643,-7.5170396],[112.6169635,-7.5171783],[112.6170016,-7.5172346],[112.6170398,-7.5172694],[112.6171161,-7.5172975],[112.6190005,-7.5180023],[112.6195804,-7.518225],[112.6199008,-7.5183928],[112.62,-7.5184448],[112.6202441,-7.518646],[112.6203815,-7.5188296],[112.6205798,-7.5192211],[112.6206637,-7.5193904],[112.6208316,-7.5197103],[112.62103,-7.5198929],[112.6212741,-7.5200437],[112.6215488,-7.5202358],[112.6217882,-7.5204847],[112.6221317,-7.5210763],[112.6226016,-7.5216492],[112.623334,-7.5224211],[112.6237842,-7.5228351],[112.6239062,-7.5238574],[112.6241427,-7.5244901],[112.6241885,-7.5246103],[112.6242267,-7.5248726],[112.6243487,-7.5253914],[112.6246768,-7.526047],[112.6249972,-7.5267666],[112.625394,-7.5277989],[112.6257754,-7.5280521],[112.6260653,-7.5282738],[112.6263553,-7.5284956],[112.626607,-7.528673],[112.6268359,-7.5287965],[112.6271869,-7.5291469],[112.6273623,-7.529496],[112.6275836,-7.5297816],[112.6278583,-7.5300095],[112.6283923,-7.5303571],[112.6288958,-7.5306995],[112.628934,-7.5307114],[112.6294604,-7.5309165],[112.629697,-7.5310662],[112.6300326,-7.5314276],[112.630292,-7.5318401],[112.630582,-7.5323913],[112.6307727,-7.5326903],[112.6309939,-7.5328181],[112.6314136,-7.5329726],[112.6326877,-7.5332835],[112.6329318,-7.533334],[112.6329318,-7.5335109],[112.6332065,-7.533655],[112.634122,-7.5337494],[112.6349765,-7.5339039],[112.6356555,-7.5342543],[112.6362887,-7.5345176],[112.6367465,-7.5346482],[112.6368533,-7.5346825],[112.6370288,-7.534766],[112.6372501,-7.5348828],[112.6374255,-7.5349663],[112.637601,-7.5350283],[112.637807,-7.5350993],[112.6380588,-7.5351646],[112.6383868,-7.5353406],[112.6385165,-7.5353806],[112.6385699,-7.5352018],[112.6388827,-7.5353067],[112.6392251,-7.5354103],[112.6392261,-7.5354107],[112.6396228,-7.5355318],[112.6398288,-7.5355928],[112.6402484,-7.535939],[112.6405307,-7.536135],[112.6410953,-7.5362613],[112.6414157,-7.5362957],[112.6417361,-7.5362399],[112.6420871,-7.5361846],[112.6423465,-7.5362327],[112.642644,-7.5363505],[112.6431094,-7.5365498],[112.643674,-7.53668],[112.6442386,-7.5367181],[112.6445437,-7.5367358],[112.6448213,-7.5368734],[112.6451312,-7.5371158],[112.6454898,-7.5375025],[112.6457263,-7.537647],[112.6459552,-7.5376928],[112.6462527,-7.537669],[112.6464129,-7.5376051],[112.6467563,-7.537298],[112.6472751,-7.5368984],[112.6480914,-7.5367692],[112.6481372,-7.5367658],[112.6481906,-7.5367782],[112.6490909,-7.5370538],[112.6492206,-7.5370925],[112.6494342,-7.537288],[112.6496097,-7.5374067],[112.649808,-7.537463],[112.6500751,-7.5375073],[112.6500751,-7.5377729],[112.6500674,-7.5380962],[112.6500674,-7.5381968],[112.6497241,-7.5391901],[112.6494723,-7.5399263],[112.649335,-7.5403869],[112.6492434,-7.5408108],[112.6492206,-7.5409348],[112.6491519,-7.5411031],[112.6489001,-7.5415724],[112.648862,-7.5416096],[112.6487933,-7.5417664],[112.6487247,-7.5420244],[112.6487781,-7.542279],[112.6486331,-7.5425112],[112.6485949,-7.5429404],[112.6485797,-7.5433162],[112.6486026,-7.5436557],[112.6486178,-7.543906],[112.6486713,-7.5440667],[112.6488925,-7.5442445],[112.649335,-7.5444572],[112.6497851,-7.5447414],[112.6500445,-7.5449512],[112.6500478,-7.544954],[112.6502887,-7.545151],[112.6507922,-7.5456136],[112.6512271,-7.546202],[112.6515704,-7.5467012],[112.6524698,-7.5476839],[112.6527225,-7.54793],[112.6535159,-7.5486782],[112.6543018,-7.5494974],[112.6550265,-7.550031],[112.6555988,-7.550565],[112.656232,-7.551081],[112.656766,-7.5515974],[112.6572924,-7.5521138],[112.6576892,-7.5524695],[112.6581546,-7.5528434],[112.6585132,-7.5532353],[112.6589099,-7.5535553],[112.6593982,-7.554054],[112.6600772,-7.5546949],[112.660657,-7.5551574],[112.6613055,-7.5556734],[112.6619845,-7.5561717],[112.6622058,-7.5563328],[112.6625442,-7.5566042],[112.6632461,-7.5569771],[112.6638565,-7.5572966],[112.6644821,-7.5575622],[112.6652221,-7.5578278],[112.6657562,-7.5580223],[112.6663665,-7.5580915],[112.6669769,-7.5581964],[112.667572,-7.5582655],[112.6683425,-7.5583161],[112.6690978,-7.5583671],[112.6700439,-7.5584348],[112.6707992,-7.5585216],[112.6714248,-7.5584834],[112.6719665,-7.5584095],[112.6724319,-7.5581396],[112.6730346,-7.5575116],[112.6737136,-7.5568837],[112.6742171,-7.5564168],[112.6747665,-7.5558785],[112.6747682,-7.555876],[112.6753387,-7.555054],[112.6756591,-7.5546359],[112.6760253,-7.5541271],[112.6763915,-7.5535901],[112.6766967,-7.552997],[112.6770095,-7.55246],[112.6772308,-7.5522054],[112.6775664,-7.5519503],[112.6779632,-7.5516952],[112.6783294,-7.5514401],[112.6786727,-7.5512131],[112.6788634,-7.5509585],[112.6792297,-7.5504497],[112.6795959,-7.5499128],[112.6799621,-7.5493759],[112.6803588,-7.5490921],[112.6808929,-7.5487798],[112.6812896,-7.548581],[112.6817092,-7.5483259],[112.682022,-7.5481275],[112.6823348,-7.5480417],[112.6827011,-7.5479835],[112.6830672,-7.5479821],[112.6836318,-7.5481494],[112.6842879,-7.548457],[112.684967,-7.5486797],[112.685646,-7.5488747],[112.686325,-7.5489281],[112.6870574,-7.5490101],[112.6877669,-7.5491203],[112.6886977,-7.5491727],[112.6892596,-7.5491428],[112.6892623,-7.5491427],[112.6897735,-7.5489434],[112.6905059,-7.5484894],[112.691101,-7.5480922],[112.6916046,-7.5478085],[112.6921386,-7.5475243],[112.6927032,-7.5472682],[112.6930465,-7.5469569],[112.6935806,-7.5465039],[112.6937649,-7.5463795],[112.6937713,-7.5463751],[112.6947021,-7.5459259],[112.695877,-7.5456856],[112.696762,-7.5456236],[112.6975707,-7.5456007],[112.6979446,-7.5455797],[112.6986541,-7.5456551],[112.6996482,-7.5456124],[112.6996535,-7.5456122],[112.7005004,-7.5456284],[112.7017364,-7.5454863],[112.7026443,-7.5453256],[112.7036116,-7.5451685],[112.7044601,-7.5450238],[112.7056426,-7.5449346],[112.7061843,-7.5449327],[112.7061843,-7.5452145],[112.7062454,-7.5455526],[112.7062988,-7.5458058],[112.7063827,-7.5460313],[112.7064742,-7.5462282],[112.7067565,-7.5464524],[112.7072067,-7.5466765],[112.7076339,-7.5468438],[112.7082824,-7.5470951],[112.70874,-7.5473001],[112.7087402,-7.5473002],[112.7092437,-7.5476268],[112.7095336,-7.5479358],[112.7098464,-7.5483292],[112.7100143,-7.5486105],[112.7101287,-7.5489486],[112.7101592,-7.549343],[112.7101592,-7.5497378],[112.7101363,-7.5501607],[112.7101058,-7.5506967],[112.7101363,-7.5514858],[112.7101669,-7.552275],[112.7102889,-7.5530637],[112.7103423,-7.5537122],[112.7104873,-7.5543035],[112.7107162,-7.5551484],[112.7108533,-7.5554378],[112.7108535,-7.5554383],[112.711029,-7.5558236],[112.7113494,-7.5565274],[112.7116317,-7.5570057],[112.7118835,-7.557371],[112.7124252,-7.5579045],[112.7131347,-7.558409],[112.7136459,-7.5587738],[112.7140731,-7.5591105],[112.7145232,-7.5593904],[112.7154845,-7.5597251],[112.7157134,-7.5597771],[112.7157206,-7.5597787],[112.716339,-7.5599192],[112.7170409,-7.5600289],[112.7177505,-7.560139],[112.7185134,-7.5605024],[112.719223,-7.5610073],[112.7197341,-7.5615128],[112.7201919,-7.5620182],[112.7207259,-7.5626362],[112.7212142,-7.5632547],[112.7215793,-7.563731],[112.7215804,-7.5637324],[112.7217788,-7.5643519],[112.7219848,-7.5649994],[112.7221832,-7.5654214],[112.7223815,-7.5657309],[112.7226409,-7.566181],[112.7228622,-7.566603],[112.7230071,-7.5670255],[112.7232055,-7.567673],[112.7233505,-7.568095],[112.7235488,-7.5685456],[112.7238899,-7.5688801],[112.7238921,-7.5688823],[112.7243423,-7.5692189],[112.7250289,-7.5696109],[112.7257613,-7.5699747],[112.7263564,-7.5702541],[112.7272033,-7.5705326],[112.7276,-7.5706437],[112.7281112,-7.57067],[112.7285613,-7.5706118],[112.7294158,-7.570524],[112.7302017,-7.5704082],[112.7308273,-7.5703491],[112.7315597,-7.5702899],[112.7322921,-7.5703152],[112.7328338,-7.5703696],[112.7335662,-7.5705355],[112.7342452,-7.5707019],[112.7349548,-7.5708683],[112.7355499,-7.5710915],[112.7357558,-7.5712417],[112.7358932,-7.5713437],[112.7363738,-7.5716522],[112.7369384,-7.5720728],[112.7371504,-7.5722489],[112.737152,-7.5722502],[112.7374801,-7.5725215],[112.7378463,-7.5728019],[112.7383041,-7.573026],[112.7388915,-7.5732206],[112.7391662,-7.5732382],[112.7391709,-7.5732385],[112.7397155,-7.573274],[112.7410735,-7.573212],[112.7422332,-7.5730665],[112.7434158,-7.5728362],[112.744461,-7.572409],[112.7453078,-7.5720113],[112.7461547,-7.5717819],[112.7469177,-7.5717509],[112.7477111,-7.5718887],[112.7483062,-7.5722244],[112.7488174,-7.5725325],[112.749382,-7.5728968],[112.7497253,-7.5731209],[112.7499999,-7.5732463],[112.7520293,-7.5748761],[112.7529143,-7.575239],[112.7533874,-7.5752738],[112.754013,-7.5749415],[112.7550048,-7.574168],[112.7558441,-7.573468],[112.7559127,-7.5734404],[112.7564315,-7.5732091],[112.7580871,-7.5733126],[112.7593002,-7.5735643],[112.7602004,-7.5739434],[112.7613677,-7.5744351],[112.7624358,-7.5748709],[112.763977,-7.5746082],[112.7653732,-7.5744188],[112.766838,-7.574303],[112.7674636,-7.5741909],[112.7677287,-7.5739391],[112.7677306,-7.5739372],[112.7683791,-7.5733073],[112.7687835,-7.5725125],[112.7688522,-7.5723651],[112.7690276,-7.5719245],[112.7697295,-7.5705903],[112.7701721,-7.5701125],[112.7712325,-7.5696681],[112.7725906,-7.5695527],[112.7731551,-7.5696953],[112.7738647,-7.5700606],[112.7749786,-7.5708664],[112.7756728,-7.5714772],[112.7762908,-7.5717938],[112.7762926,-7.5717921],[112.7765121,-7.5715721],[112.7769012,-7.5708588],[112.7774429,-7.5702179],[112.7775344,-7.5691374],[112.7779998,-7.5683497],[112.7792968,-7.5672153],[112.7801818,-7.5665243],[112.7816619,-7.5660027],[112.7820968,-7.5657342],[112.7822189,-7.5656665],[112.782257,-7.5650576],[112.7823409,-7.564905],[112.7828216,-7.5647343],[112.7832946,-7.5644863],[112.7838744,-7.5641706],[112.7843093,-7.5635927],[112.7845077,-7.5631336],[112.784706,-7.5627783],[112.7857436,-7.5627778],[112.7862014,-7.5629814],[112.7871093,-7.5635093],[112.7872161,-7.5635965],[112.7876739,-7.5640162],[112.7878417,-7.5641244],[112.7880401,-7.5641697],[112.7885131,-7.5640205],[112.7890909,-7.563829],[112.7890929,-7.5638283],[112.7897414,-7.5643132],[112.7899246,-7.5643986],[112.7901916,-7.5644482],[112.7904967,-7.564431],[112.7907104,-7.5643642],[112.7913741,-7.5637925],[112.7925796,-7.5628698],[112.7932815,-7.5623878],[112.7935332,-7.5622118],[112.7946166,-7.5624349],[112.7947768,-7.5623749],[112.7949523,-7.5622233],[112.7951583,-7.5619443],[112.7955474,-7.5614317],[112.795845,-7.5611885],[112.7960738,-7.561086],[112.7961349,-7.5607808],[112.7962493,-7.5604437],[112.7965164,-7.560385],[112.7966918,-7.5606316],[112.7968368,-7.5609825],[112.7976226,-7.5616229],[112.7982558,-7.5611871],[112.798355,-7.5610221],[112.7984084,-7.5608123],[112.7983932,-7.5605739],[112.7979431,-7.559841],[112.7979125,-7.5589302],[112.7979507,-7.558709],[112.7980346,-7.5585149],[112.7984618,-7.5583074],[112.7993545,-7.5583652],[112.7997283,-7.558955],[112.7997817,-7.5595077],[112.799652,-7.5615418],[112.7998275,-7.5618585],[112.8003234,-7.5620702],[112.8009109,-7.5621279],[112.8014411,-7.5620465],[112.8014449,-7.5620459],[112.8016357,-7.5615542],[112.8018035,-7.5606888],[112.8020248,-7.5600164],[112.8021316,-7.5595758],[112.8021316,-7.5591014],[112.8027343,-7.5589917],[112.8029632,-7.5589569],[112.8031844,-7.5590046],[112.803749,-7.5593484],[112.8039474,-7.55947],[112.804222,-7.5595086],[112.8045806,-7.5594805],[112.804779,-7.5594133],[112.8049926,-7.5592564],[112.8050841,-7.5591171],[112.8051452,-7.5588177],[112.8051299,-7.558359],[112.8050307,-7.5578421],[112.8049087,-7.5573719],[112.8048782,-7.5570963],[112.8049315,-7.5566957],[112.805046,-7.5563129],[112.8052062,-7.5559662],[112.8054275,-7.5556596],[112.8056335,-7.5554636],[112.806137,-7.5551837],[112.8065108,-7.5550368],[112.8071899,-7.5549558],[112.8078384,-7.554941],[112.808525,-7.5550268],[112.809471,-7.5553539],[112.8097533,-7.555435],[112.8099517,-7.5554517],[112.8101043,-7.5553983],[112.8103484,-7.5551727],[112.8106765,-7.5548122],[112.810913,-7.5546063],[112.8110656,-7.5545242],[112.8116378,-7.5545872],[112.8117294,-7.5546229],[112.811872,-7.5546942],[112.8118743,-7.5546954],[112.8118496,-7.5547586],[112.8115234,-7.5555933],[112.811264,-7.556268],[112.8109283,-7.5568245],[112.811058,-7.5568855],[112.8111114,-7.5569079],[112.81118,-7.5569499],[112.8112258,-7.5569785],[112.8112563,-7.5569933],[112.8115386,-7.5571745],[112.8118667,-7.5573972],[112.8121947,-7.5576242],[112.8125152,-7.5578726],[112.812622,-7.5579737],[112.8127212,-7.5581282],[112.8128051,-7.5582641],[112.8128509,-7.5583971],[112.8128967,-7.5585387],[112.8128967,-7.5586737],[112.8139419,-7.5590818],[112.8146056,-7.5590542],[112.8165206,-7.5589178],[112.8167266,-7.5588735],[112.816986,-7.5586923],[112.8175887,-7.5581763],[112.8182372,-7.5576094],[112.8186111,-7.5572918],[112.8189086,-7.5571182],[112.8199996,-7.5567997],[112.8205642,-7.5566075],[112.8215179,-7.5561493],[112.8227309,-7.5554894],[112.823265,-7.5551751],[112.8235244,-7.5550664],[112.8239287,-7.5550087],[112.8242568,-7.5550035],[112.8243331,-7.5550411],[112.824562,-7.5548556],[112.8249206,-7.5546515],[112.8255691,-7.5543979],[112.8259048,-7.5542658],[112.8264846,-7.5537956],[112.8266982,-7.5536259],[112.8270873,-7.5534613],[112.8277282,-7.5533145],[112.8279952,-7.5531967],[112.828392,-7.5530274],[112.8288955,-7.5528596],[112.8291549,-7.5528152],[112.8296279,-7.5528534],[112.8299789,-7.5528925],[112.8300933,-7.5528825],[112.830223,-7.5527842],[112.8303908,-7.5526069],[112.8305968,-7.5525168],[112.8308868,-7.5524786],[112.8313064,-7.5525544],[112.8316039,-7.5526145],[112.8317413,-7.552594],[112.8318938,-7.5525115],[112.8320312,-7.5523704],[112.8322906,-7.5527494],[112.8330535,-7.553345],[112.8339156,-7.5537713],[112.8348006,-7.554035],[112.8354949,-7.5541943],[112.8357925,-7.5543411],[112.8358535,-7.5548828],[112.8356093,-7.5556353],[112.8351211,-7.5564931],[112.8348693,-7.5573209],[112.8348464,-7.5585473],[112.8352279,-7.5599716],[112.8359222,-7.5618222],[112.8364028,-7.5635269],[112.8369445,-7.5652426],[112.837387,-7.5669587],[112.8375014,-7.5683539],[112.8384704,-7.5697458],[112.8389192,-7.5702403],[112.8389205,-7.5702417],[112.8402023,-7.5716713],[112.8412697,-7.5722703],[112.8412704,-7.5722707],[112.8417205,-7.5725239],[112.8424758,-7.5733798],[112.8433456,-7.5748795],[112.8439941,-7.5763796],[112.8444708,-7.5768928],[112.8455544,-7.5774563],[112.8464556,-7.5771542],[112.8493351,-7.5760503],[112.849731,-7.5766795],[112.852415,-7.5752923],[112.8529829,-7.5756827],[112.853945,-7.5745389],[112.8549609,-7.5752012],[112.8556337,-7.5743206],[112.8567391,-7.574726],[112.8572003,-7.5739529],[112.858743,-7.5747622],[112.8590215,-7.5730325],[112.8620012,-7.5743074],[112.86206,-7.5724451],[112.865004,-7.5734448],[112.8644505,-7.5728967],[112.8673776,-7.5722227],[112.8697924,-7.5716667],[112.8699005,-7.5711454],[112.8699262,-7.5702635],[112.8697488,-7.5692419],[112.8691754,-7.5672752],[112.8686071,-7.5654455],[112.8685516,-7.5649208],[112.8685677,-7.5645025],[112.8687953,-7.5641231],[112.8688902,-7.5639504],[112.8691978,-7.5637518],[112.8694868,-7.5636339],[112.8701556,-7.5635294],[112.8705954,-7.5637102],[112.8713572,-7.564109],[112.8718507,-7.5643111],[112.8724354,-7.5644972],[112.873224,-7.5647258],[112.8740019,-7.5649971],[112.8746724,-7.5651938],[112.8752947,-7.5652257],[112.8760993,-7.5650874],[112.8770542,-7.5646089],[112.8776497,-7.5642313],[112.878347,-7.5637102],[112.8790395,-7.5631758],[112.8800118,-7.5621453],[112.8800251,-7.5619986],[112.8799616,-7.5618815],[112.8798161,-7.5617309],[112.879522,-7.5613393],[112.8790047,-7.5604189],[112.878706,-7.5600723],[112.8782732,-7.5598664],[112.8775199,-7.5595425],[112.8764749,-7.5589454],[112.8758204,-7.5581318],[112.8753966,-7.5574299],[112.8751337,-7.5567173],[112.8747582,-7.5556271],[112.8744417,-7.5551326],[112.8738838,-7.5546539],[112.8730899,-7.5541115],[112.8722799,-7.5534787],[112.8706705,-7.5521333],[112.8692865,-7.5509314],[112.8681707,-7.54957],[112.8675484,-7.5475705],[112.8673768,-7.5455284],[112.8674197,-7.5440181],[112.8677845,-7.5418484],[112.868557,-7.5407422],[112.8694582,-7.5400828],[112.8714108,-7.5393382],[112.8725588,-7.5387852],[112.8727412,-7.5383385],[112.8727305,-7.5378705],[112.8723979,-7.5371791],[112.8709495,-7.5348392],[112.8701073,-7.5337277],[112.8688144,-7.5325098],[112.8665185,-7.5303613],[112.8640938,-7.5282553],[112.8617763,-7.5262557],[112.860403,-7.5245751],[112.8592872,-7.5232349],[112.8575921,-7.5211076],[112.8567123,-7.5201716],[112.8547597,-7.5190867],[112.851541,-7.517321],[112.8491807,-7.5156191],[112.8464234,-7.513428],[112.8440523,-7.5114283],[112.8419602,-7.5095987],[112.8409731,-7.5089393],[112.8402114,-7.5085776],[112.8394067,-7.5083861],[112.8383446,-7.508067],[112.8375184,-7.5078117],[112.8370142,-7.5075458],[112.8365314,-7.5069608],[112.8355014,-7.5057482],[112.8342676,-7.5039825],[112.8334629,-7.5026954],[112.8324652,-7.5013339],[112.8312635,-7.4997808],[112.8305554,-7.4987703],[112.8296649,-7.4975577],[112.8289246,-7.4968237],[112.827892,-7.4959143],[112.8273341,-7.4954117],[112.8268674,-7.4949676],[112.8262746,-7.4944543],[112.8256094,-7.4938746],[112.8250837,-7.4934411],[112.8246465,-7.4931061],[112.8241986,-7.4928454],[112.8238553,-7.4926992],[112.8235495,-7.4926832],[112.8232974,-7.4927364],[112.8230479,-7.4928561],[112.8228441,-7.4930236],[112.8226241,-7.4931034],[112.8224686,-7.4930954],[112.8222674,-7.4929007],[112.8221919,-7.4926973],[112.8221404,-7.4924758],[112.8219295,-7.4918322],[112.8217149,-7.491085],[112.8215325,-7.4905797],[112.8212213,-7.489867],[112.8209317,-7.4890852],[112.8207278,-7.4885107],[112.8206313,-7.4880055],[112.8205669,-7.48733],[112.8204006,-7.486245],[112.8202021,-7.4850217],[112.8197569,-7.4835644],[112.8192472,-7.4818517],[112.8187537,-7.480764],[112.8183943,-7.4801577],[112.8180429,-7.4796737],[112.8175387,-7.4792588],[112.8171122,-7.4790248],[112.8167072,-7.4788998],[112.8164121,-7.4789184],[112.815873,-7.4790514],[112.8151166,-7.479445],[112.8144622,-7.4785328],[112.8138641,-7.4776871],[112.8138506,-7.4775635],[112.8138828,-7.4774917],[112.8146471,-7.4767379],[112.8154921,-7.4759798],[112.8162968,-7.4752937],[112.8188781,-7.4740016],[112.8194759,-7.4737268],[112.8203362,-7.4734747],[112.8212857,-7.4733895],[112.8225624,-7.4733257],[112.8241074,-7.4732725],[112.8252929,-7.4732725],[112.8262746,-7.473448],[112.8271061,-7.473698],[112.8278625,-7.4741129],[112.828474,-7.474932],[112.8292733,-7.4760915],[112.8302121,-7.4775329],[112.8312099,-7.4791019],[112.8322399,-7.4808784],[112.8335702,-7.4828995],[112.8344822,-7.4840271],[112.8353298,-7.4849951],[112.835952,-7.4852504],[112.8363812,-7.4851759],[112.8372931,-7.4847823],[112.8380549,-7.4844632],[112.8392029,-7.4841441],[112.8399861,-7.4838994],[112.8406191,-7.483559],[112.8410375,-7.4830484],[112.8413379,-7.4823889],[112.8416169,-7.4812507],[112.8417671,-7.4798253],[112.841531,-7.4786445],[112.8409946,-7.4752298],[112.8404474,-7.4715598],[112.8399002,-7.4674217],[112.8396106,-7.4642197],[112.8394604,-7.4605603],[112.8394925,-7.4573688],[112.8392994,-7.4556561],[112.8386986,-7.4537838],[112.8383338,-7.4526881],[112.8380012,-7.4509966],[112.8376633,-7.4470711],[112.8376043,-7.4455551],[112.8374326,-7.4441987],[112.8372878,-7.4426136],[112.8371858,-7.4405603],[112.8370571,-7.4378209],[112.8370678,-7.4355709],[112.8370464,-7.4339644],[112.8368211,-7.4321559],[112.8363812,-7.4303685],[112.8358179,-7.4285706],[112.8355658,-7.4277408],[112.8353137,-7.4271024],[112.8351796,-7.4264375],[112.8352089,-7.4258526],[112.8352386,-7.4255119],[112.8352788,-7.4250021],[112.8355336,-7.4246342],[112.8356507,-7.4236534],[112.8359467,-7.4227033],[112.8360915,-7.4217138],[112.8361613,-7.4207563],[112.8361934,-7.4196499],[112.8361934,-7.4188413],[112.8362149,-7.418054],[112.8354803,-7.4161607],[112.8353547,-7.4159635],[112.835132,-7.4156087],[112.8350718,-7.4151862],[112.8347266,-7.4140432],[112.8347426,-7.413977],[112.835151,-7.4137363],[112.8351356,-7.413597],[112.834954,-7.4136119],[112.8349118,-7.4135524],[112.8349233,-7.4133191],[112.8349594,-7.4132219],[112.8350258,-7.4131929],[112.8352102,-7.4131815],[112.8352957,-7.4131458],[112.8355012,-7.4131297],[112.8355923,-7.413025],[112.8356856,-7.411151],[112.8357912,-7.4105517],[112.8358948,-7.4099629],[112.8358644,-7.4092501],[112.8358712,-7.4088242],[112.8357249,-7.4083175],[112.8356141,-7.4080213],[112.8354531,-7.4077553],[112.8354317,-7.4075159],[112.8354773,-7.40671],[112.8354585,-7.4059599],[112.8354156,-7.4058482],[112.8353083,-7.4057551],[112.835134,-7.4057019],[112.8349435,-7.405678],[112.8345305,-7.4056088],[112.8343025,-7.4054891],[112.8339394,-7.4052562],[112.8336415,-7.4049065],[112.8335981,-7.4047904],[112.8335541,-7.4046619],[112.8335944,-7.4044226],[112.8336921,-7.4041448],[112.8337688,-7.404016],[112.8338518,-7.403913],[112.8339553,-7.4037489],[112.8340507,-7.4036826],[112.8341189,-7.4036474],[112.834155,-7.4035687],[112.8341361,-7.4034927],[112.8340282,-7.4033373],[112.8340298,-7.4031882],[112.834049,-7.4030445],[112.8340946,-7.4029767],[112.8342182,-7.4029415],[112.8342973,-7.4028782],[112.8343452,-7.4027454],[112.8343207,-7.4026159],[112.834325,-7.4025272],[112.8343324,-7.4024681],[112.8343895,-7.4024273],[112.8344961,-7.4024792],[112.8345576,-7.4024644],[112.8346191,-7.4024089],[112.8349526,-7.402102],[112.8350927,-7.4020403],[112.8352019,-7.4020478],[112.8353093,-7.4020187],[112.8356136,-7.4017313],[112.8357598,-7.4014479],[112.8365422,-7.3983235],[112.836525,-7.39781],[112.8365171,-7.3972594],[112.8365106,-7.3969087],[112.8365563,-7.3966639],[112.836658,-7.3965057],[112.8368985,-7.3961732],[112.8369587,-7.3959604],[112.836969,-7.3956797],[112.8369056,-7.3948898],[112.8367985,-7.3939963],[112.8368621,-7.3937722],[112.8370003,-7.3934863],[112.837018,-7.3931589],[112.8369798,-7.3928438],[112.8367982,-7.3923065],[112.8366016,-7.391939],[112.8364348,-7.3916827],[112.8363988,-7.3914634],[112.8364854,-7.390457],[112.8364726,-7.3899475],[112.8364833,-7.3895945],[112.8364424,-7.3895334],[112.8363685,-7.3894818],[112.8362583,-7.3894604],[112.8361655,-7.3893426],[112.8361438,-7.3891568],[112.836193,-7.3888447],[112.8361878,-7.388715],[112.8360154,-7.3886081],[112.8358607,-7.3885523],[112.8357504,-7.3884706],[112.8357413,-7.3884099],[112.8357679,-7.3883594],[112.8360373,-7.3882871],[112.8360744,-7.3882349],[112.8360835,-7.3881415],[112.8360411,-7.3879864],[112.8359535,-7.3878491],[112.8359544,-7.3877509],[112.8360389,-7.3876333],[112.8361177,-7.3875099],[112.8361449,-7.3874227],[112.8361559,-7.3873221],[112.8361281,-7.3870731],[112.8360966,-7.386954],[112.8360511,-7.3868931],[112.8360473,-7.3868573],[112.8361145,-7.3868252],[112.8362277,-7.3868053],[112.8362555,-7.3867579],[112.8362616,-7.3867051],[112.8362674,-7.3866103],[112.8362059,-7.3864822],[112.8360956,-7.3863676],[112.8360073,-7.386209],[112.8359673,-7.386088],[112.8359652,-7.3859697],[112.8358809,-7.3858135],[112.8357696,-7.3856357],[112.8356692,-7.3854401],[112.8355122,-7.3852633],[112.8348309,-7.3845717],[112.8345573,-7.384313],[112.8344017,-7.384045],[112.8343838,-7.3832618],[112.8346109,-7.3829201],[112.8354263,-7.3816936],[112.8359628,-7.3804487],[112.8363061,-7.3790443],[112.836354,-7.376886],[112.8364005,-7.376313],[112.8364682,-7.3757354],[112.8364146,-7.3756445],[112.8362857,-7.3755706],[112.8362024,-7.3754985],[112.836189,-7.3753923],[112.8362153,-7.3753345],[112.8362936,-7.3752767],[112.8363708,-7.375157],[112.836426,-7.3749409],[112.8364893,-7.3747567],[112.8365639,-7.374627],[112.836542,-7.3742944],[112.8364625,-7.3741632],[112.8363898,-7.3740602],[112.8363582,-7.3738636],[112.8363777,-7.3737232],[112.8365247,-7.3736155],[112.8366247,-7.3734816],[112.8366394,-7.3733736],[112.8366117,-7.3732329],[112.8364194,-7.3726192],[112.836426,-7.3722155],[112.8364955,-7.3713037],[112.8366028,-7.3707078],[112.8367847,-7.3700933],[112.8367837,-7.3698118],[112.8368232,-7.3694394],[112.8367581,-7.3693397],[112.8364966,-7.3692806],[112.8363022,-7.3692533],[112.8362687,-7.3691578],[112.8362543,-7.3690352],[112.8363108,-7.36892],[112.8364382,-7.3688437],[112.8365184,-7.3687822],[112.8365702,-7.368613],[112.8367002,-7.3678184],[112.8366968,-7.3675335],[112.8366432,-7.3672599],[112.8367013,-7.3670787],[112.8368885,-7.3668313],[112.8370096,-7.3665956],[112.8369923,-7.366448],[112.8369105,-7.3663531],[112.836872,-7.3661839],[112.8368881,-7.3659332],[112.8368467,-7.3656581],[112.8368476,-7.3654532],[112.8369224,-7.3650458],[112.8368772,-7.3649614],[112.8367468,-7.3648806],[112.8367028,-7.3647747],[112.8366737,-7.3646399],[112.8367248,-7.3643834],[112.8368438,-7.3638802],[112.8368224,-7.3636798],[112.8366689,-7.3630207],[112.8366214,-7.3626597],[112.8367352,-7.362461],[112.8369218,-7.3623148],[112.8370694,-7.3622324],[112.8371557,-7.3621453],[112.8373172,-7.361907],[112.8373727,-7.361156],[112.8374453,-7.3606905],[112.8374391,-7.3605115],[112.8374006,-7.3603074],[112.8374262,-7.3601725],[112.8375084,-7.3600424],[112.8375529,-7.3598199],[112.8376022,-7.3588861],[112.8375872,-7.3587103],[112.8375002,-7.3584154],[112.8375251,-7.3580598],[112.8375783,-7.3576994],[112.8375152,-7.3572181],[112.8374576,-7.3571208],[112.837098,-7.3569719],[112.8363812,-7.356604],[112.8361773,-7.356306],[112.8361398,-7.3557155],[112.8363115,-7.3550345],[112.8365207,-7.354694],[112.8367782,-7.3545184],[112.837792,-7.3544439],[112.8383714,-7.3543961],[112.8385967,-7.3543003],[112.8387201,-7.3540715],[112.8388864,-7.3528691],[112.8389722,-7.3516135],[112.8389025,-7.3511986],[112.838822,-7.3510017],[112.8386128,-7.3508421],[112.838366,-7.3506559],[112.8381997,-7.3503686],[112.8381461,-7.3501345],[112.8382534,-7.3497301],[112.8384733,-7.3491715],[112.8386396,-7.3485756],[112.8387576,-7.3479957],[112.838763,-7.3476871],[112.8386879,-7.3474105],[112.8384197,-7.346921],[112.8383177,-7.3466709],[112.8383285,-7.3462613],[112.8385055,-7.3460484],[112.839058,-7.3457558],[112.8396481,-7.3453728],[112.8399432,-7.3450003],[112.8401846,-7.3446279],[112.8405011,-7.3435213],[112.8405815,-7.343069],[112.8405493,-7.3427977],[112.8403991,-7.3424306],[112.8401309,-7.3420262],[112.8399754,-7.3417602],[112.8397769,-7.3415048],[112.8396374,-7.3412814],[112.839514,-7.3408664],[112.8395086,-7.3405471],[112.8396803,-7.3397012],[112.8400612,-7.3387169],[112.8403562,-7.3380199],[112.8405654,-7.3373389],[112.8407639,-7.3364823],[112.841059,-7.3354927],[112.841295,-7.3346999],[112.8413862,-7.3340721],[112.8414774,-7.3333591],[112.8414774,-7.3329282],[112.8414774,-7.3325105],[112.8414425,-7.3321035],[112.8413808,-7.3316752],[112.8413004,-7.3312868],[112.8412253,-7.3311032],[112.8411046,-7.3309037],[112.8407747,-7.3306616],[112.8404582,-7.330526],[112.8399914,-7.3303983],[112.8394335,-7.3302972],[112.838999,-7.330212],[112.8388005,-7.3302067],[112.8386289,-7.330236],[112.8383687,-7.3303584],[112.8373629,-7.3310128],[112.8362069,-7.3317444],[112.8356624,-7.3321434],[112.8351742,-7.3325158],[112.8347933,-7.332875],[112.8344017,-7.3332182],[112.8337178,-7.3337316],[112.8331438,-7.3342291],[112.8327522,-7.3346441],[112.8322962,-7.3352213],[112.8320011,-7.3356816],[112.8316793,-7.3362349],[112.8314003,-7.3366126],[112.8311777,-7.3368654],[112.8307754,-7.3373123],[112.8302765,-7.3379348],[112.8300404,-7.3384083],[112.8297025,-7.33935],[112.8292572,-7.3411483],[112.8288656,-7.3420901],[112.8283327,-7.3431774],[112.8279698,-7.343883],[112.8279,-7.3439575],[112.827377,-7.3438431],[112.8270648,-7.3437489],[112.8268564,-7.3436712],[112.8261698,-7.3433562],[112.8260366,-7.3431957],[112.8252868,-7.3434132],[112.824829,-7.3434728],[112.8232345,-7.3434642],[112.8211898,-7.3432849],[112.8199386,-7.3433822],[112.8190045,-7.3435236],[112.8182234,-7.3437303],[112.8172912,-7.3440988],[112.8164748,-7.3445752],[112.8156204,-7.3448933],[112.8147811,-7.3454049],[112.8142191,-7.3458693],[112.8136663,-7.3461272],[112.8131073,-7.3462725],[112.8125715,-7.3463995],[112.812223,-7.3464072],[112.8120687,-7.346391],[112.8107179,-7.3462228],[112.8091254,-7.345917],[112.808372,-7.3458074],[112.8075613,-7.3458352],[112.8070469,-7.3458813],[112.8067691,-7.3459062],[112.8066281,-7.3459084],[112.8061583,-7.3461113],[112.8058527,-7.3460887],[112.8048708,-7.3458243],[112.8044346,-7.3457175],[112.8034591,-7.3455103],[112.8029708,-7.3455108],[112.80222,-7.3454741],[112.8014144,-7.3453196],[112.8011165,-7.3452445],[112.8007998,-7.3452201],[112.8004531,-7.3453062],[112.7998826,-7.345551],[112.7995984,-7.3455834],[112.7994376,-7.3454916],[112.7991485,-7.345074],[112.7989491,-7.3449274],[112.7986831,-7.3449062],[112.7984851,-7.3449329],[112.7981593,-7.3450708],[112.7977501,-7.3451935],[112.7973316,-7.3452661],[112.7969283,-7.3453801],[112.796524,-7.3457277],[112.7961883,-7.3458341],[112.796055,-7.3460221],[112.7959718,-7.3464637],[112.795834,-7.346533],[112.7955832,-7.3465765],[112.7946839,-7.3464425],[112.7934921,-7.3464496],[112.7930315,-7.3462205],[112.7925381,-7.3459876],[112.7916965,-7.3453504],[112.7915033,-7.3450937],[112.7912826,-7.3448671],[112.7910613,-7.3447288],[112.789566,-7.3440931],[112.7890014,-7.3439673],[112.7887719,-7.3440066],[112.7883714,-7.344134],[112.7866286,-7.3445891],[112.7864453,-7.3447223],[112.7863051,-7.344982],[112.7860762,-7.3451837],[112.7858331,-7.3452028],[112.7854307,-7.3450964],[112.7852401,-7.3451484],[112.7847894,-7.345521],[112.7844083,-7.3456006],[112.7837129,-7.3455605],[112.7827614,-7.3454117],[112.7798232,-7.344817],[112.7795513,-7.3447571],[112.7793958,-7.3446228],[112.779365,-7.3444706],[112.7793555,-7.3439046],[112.7794011,-7.3432129],[112.7794601,-7.3427554],[112.7793858,-7.3426152],[112.779141,-7.3425133],[112.7776555,-7.3422058],[112.7774486,-7.3420922],[112.7773774,-7.3418948],[112.7773762,-7.3416604],[112.7775198,-7.3403292],[112.7775087,-7.3402898],[112.7774439,-7.3402652],[112.7770608,-7.340127],[112.7766527,-7.3400955],[112.7759446,-7.3401513],[112.7749951,-7.3400449],[112.7743675,-7.3398933],[112.7740724,-7.3398773],[112.7736808,-7.3397869],[112.7736279,-7.3397703],[112.7732141,-7.3397177],[112.7729003,-7.3396299],[112.7726589,-7.3395049],[112.7724631,-7.3395022],[112.7722405,-7.3396033],[112.7720688,-7.3396725],[112.7718086,-7.3396166],[112.771417,-7.3391963],[112.7713044,-7.3391378],[112.7711595,-7.3391484],[112.7710791,-7.3391857],[112.7709276,-7.3393618],[112.7708224,-7.3394782],[112.7706142,-7.3394381],[112.7702655,-7.3392785],[112.7700638,-7.3392828],[112.7699383,-7.339454],[112.7697903,-7.3395591],[112.7695531,-7.3395831],[112.7694572,-7.339637],[112.7691773,-7.3399712],[112.7691552,-7.3399976],[112.7690512,-7.3405958],[112.7687516,-7.3405594],[112.7686997,-7.3407136],[112.7686463,-7.3408463],[112.7685704,-7.3413561],[112.7684703,-7.3415124],[112.7682584,-7.3416542],[112.7679347,-7.3415943],[112.7680105,-7.341879],[112.7670745,-7.3415926],[112.7669525,-7.3415406],[112.7668914,-7.3414548],[112.7668304,-7.341029],[112.7667236,-7.3392222],[112.7666625,-7.3389276],[112.7665328,-7.3386081],[112.7665046,-7.3383017],[112.765749,-7.3385059],[112.7656125,-7.3385145],[112.7652246,-7.3383289],[112.7649706,-7.3382749],[112.7648391,-7.3383868],[112.7645371,-7.3384592],[112.7632787,-7.3385687],[112.7624892,-7.3384669],[112.7618452,-7.3382268],[112.7606811,-7.3378342],[112.7601852,-7.3377712],[112.7568868,-7.3370719],[112.7559432,-7.3368772],[112.7554092,-7.3367432],[112.7552256,-7.3367082],[112.7550259,-7.3367777],[112.7548751,-7.3370107],[112.7547157,-7.3372871],[112.7541579,-7.338498],[112.7540893,-7.338827],[112.754102,-7.3391032],[112.754074,-7.3400987],[112.7539763,-7.340495],[112.7538206,-7.3407276],[112.7537408,-7.3409227],[112.7537281,-7.3412403],[112.7537361,-7.3417324],[112.7537008,-7.3419307],[112.7535645,-7.342049],[112.7534234,-7.3421238],[112.7531836,-7.3422192],[112.7527437,-7.3423203],[112.7524108,-7.3423642],[112.7516172,-7.3422991],[112.7509654,-7.3423549],[112.7505202,-7.3422884],[112.7498709,-7.3422508],[112.7489836,-7.3421328],[112.748062,-7.3423951],[112.7478255,-7.3423699],[112.7470841,-7.3421106],[112.7438048,-7.3412021],[112.743431,-7.3410652],[112.7430266,-7.3408149],[112.7429622,-7.3408481],[112.7429246,-7.3410069],[112.7428364,-7.3412682],[112.7424292,-7.3432358],[112.7422978,-7.3434699],[112.74196,-7.34513],[112.7418267,-7.3451804],[112.7394386,-7.3449702],[112.7377115,-7.3450007],[112.7375452,-7.3449829],[112.7371611,-7.3449253],[112.7367759,-7.344871],[112.7365596,-7.3448459],[112.7364647,-7.3449724],[112.7364049,-7.3452516],[112.7363178,-7.3458095],[112.7363128,-7.3462275],[112.736063,-7.3463309],[112.7357573,-7.3463575],[112.7351603,-7.3463949],[112.7343169,-7.3465065],[112.7335818,-7.3466036],[112.7334559,-7.3468417],[112.7333567,-7.3473125],[112.7333486,-7.3477781],[112.7332521,-7.3479483],[112.7330523,-7.3480123],[112.7312139,-7.3480971],[112.7298457,-7.3481026],[112.7293445,-7.3480957],[112.7287379,-7.3482729],[112.7278608,-7.3483873],[112.7271768,-7.3483787],[112.7258469,-7.3482934],[112.7255976,-7.3482096],[112.7252569,-7.3478946],[112.7248928,-7.3475896],[112.7246556,-7.3474396],[112.7245389,-7.3473844],[112.7245222,-7.3472343],[112.7245483,-7.3470306],[112.7244656,-7.3469434],[112.7241636,-7.3468938],[112.7241841,-7.3467194],[112.7242023,-7.3465211],[112.7242922,-7.3463775],[112.724327,-7.3461793],[112.7243109,-7.3459811],[112.7242205,-7.34585],[112.7239557,-7.3457344],[112.7234411,-7.3455009],[112.7231495,-7.3453746],[112.7229068,-7.3452482],[112.7226721,-7.3451339],[112.7224991,-7.3451259],[112.7222014,-7.3451418],[112.7217483,-7.345033],[112.7199537,-7.3445606],[112.7198043,-7.344476],[112.7197385,-7.3443829],[112.7197203,-7.3442839],[112.719818,-7.3438194],[112.719961,-7.3433078],[112.720026,-7.3430754],[112.7198436,-7.3430065],[112.7190497,-7.3427864],[112.7172487,-7.3422595],[112.7156291,-7.3418129],[112.7157024,-7.3413009],[112.7157245,-7.3411303],[112.7158427,-7.3410459],[112.7159356,-7.3404605],[112.7160488,-7.3399024],[112.7152871,-7.3397295],[112.7132589,-7.3390987],[112.7127839,-7.338962],[112.7122565,-7.3388163],[112.7117965,-7.3386927],[112.7115205,-7.3386042],[112.7109756,-7.3383964],[112.7107735,-7.3383156],[112.7106864,-7.3383102],[112.7105214,-7.3383342],[112.7103756,-7.3382743],[112.7102214,-7.3381556],[112.7100558,-7.3380729],[112.7095153,-7.3379878],[112.7091022,-7.3378694],[112.7089078,-7.3377989],[112.7085309,-7.3377098],[112.7081668,-7.3375776],[112.708024,-7.3375515],[112.707964,-7.3375182],[112.7079824,-7.3374211],[112.7080586,-7.3373082],[112.7073188,-7.337248],[112.7070007,-7.3371843],[112.7064321,-7.337042],[112.7058791,-7.3368529],[112.7056426,-7.3367584],[112.7046747,-7.3361528],[112.7045947,-7.3362484],[112.7037124,-7.3371452],[112.7026137,-7.3381155],[112.7005385,-7.3392762],[112.6991602,-7.3405968],[112.6980743,-7.3417204],[112.6970672,-7.3424185],[112.6966937,-7.3425964],[112.6954175,-7.3432155],[112.6948071,-7.3433987],[112.6934327,-7.3439593],[112.6926316,-7.344408],[112.6916427,-7.3449157],[112.6902389,-7.3454717],[112.688065,-7.3460207],[112.6865687,-7.3463833],[112.6856437,-7.3466319],[112.6838511,-7.3471418],[112.6827803,-7.3475853],[112.6823136,-7.3478336],[112.681076,-7.3485626],[112.6800155,-7.3494576],[112.6783599,-7.3504308],[112.6764678,-7.351013],[112.6748046,-7.3513068],[112.6742099,-7.3513443],[112.6732711,-7.3514035],[112.671173,-7.3513464],[112.6698913,-7.3512333],[112.6690207,-7.3509609],[112.6679188,-7.3510317]]]]}}]}