{
  "type": "FeatureCollection",
  "generator": "overpass-turbo",
  "copyright": "The data included in this document is from www.openstreetmap.org. The data is made available under ODbL.",
  "timestamp": "2026-09-13T03:56:33Z",
  "features": [
    {
      "type": "Feature",
      "properties": {
        "@id": "relation/9680040",
        "admin_level": "6",
        "boundary": "administrative",
        "name": "Wonoayu",
        "type": "boundary",
        "wikidata": "Q11552373",
        "wikipedia": "id:Wonoayu, Sidoarjo"
      },
      "geometry": {
        "type": "Polygon",
        "coordinates": [
          [
            [
              112.6606157,
              -7.4553072
            ],
            [
              112.6622464,
              -7.4502558
            ],
            [
              112.6625308,
              -7.4503839
            ],
            [
              112.6631406,
              -7.4507246
            ],
            [
              112.664334,
              -7.4498438
            ],
            [
              112.6644363,
              -7.4498491
            ],
            [
              112.6645508,
              -7.4497862
            ],
            [
              112.6645516,
              -7.4497857
            ],
            [
              112.6646591,
              -7.4496339
            ],
            [
              112.6647782,
              -7.4493483
            ],
            [
              112.664992,
              -7.4488352
            ],
            [
              112.665062,
              -7.4486389
            ],
            [
              112.6651686,
              -7.4486938
            ],
            [
              112.6651831,
              -7.448634
            ],
            [
              112.6651947,
              -7.4485863
            ],
            [
              112.6652272,
              -7.4485016
            ],
            [
              112.6654453,
              -7.4476455
            ],
            [
              112.6656092,
              -7.4470124
            ],
            [
              112.6658947,
              -7.4459099
            ],
            [
              112.666026,
              -7.4452736
            ],
            [
              112.6660905,
              -7.4448323
            ],
            [
              112.6661075,
              -7.4447211
            ],
            [
              112.6661584,
              -7.4447325
            ],
            [
              112.6668057,
              -7.4447216
            ],
            [
              112.666946,
              -7.4447626
            ],
            [
              112.6671078,
              -7.4447701
            ],
            [
              112.6672827,
              -7.4446236
            ],
            [
              112.6688875,
              -7.4456011
            ],
            [
              112.6690177,
              -7.4461851
            ],
            [
              112.6694221,
              -7.4466766
            ],
            [
              112.6705171,
              -7.4470375
            ],
            [
              112.6708541,
              -7.4428417
            ],
            [
              112.6697943,
              -7.4424702
            ],
            [
              112.6679885,
              -7.4418919
            ],
            [
              112.6669138,
              -7.4412571
            ],
            [
              112.6607874,
              -7.4396954
            ],
            [
              112.6609508,
              -7.4392924
            ],
            [
              112.6610024,
              -7.4391649
            ],
            [
              112.6614875,
              -7.4382197
            ],
            [
              112.6611761,
              -7.4381564
            ],
            [
              112.6609636,
              -7.4380009
            ],
            [
              112.6606664,
              -7.4377828
            ],
            [
              112.6602112,
              -7.4374489
            ],
            [
              112.6599988,
              -7.4372811
            ],
            [
              112.6596657,
              -7.4372048
            ],
            [
              112.6596775,
              -7.4370765
            ],
            [
              112.6596939,
              -7.4369358
            ],
            [
              112.6597067,
              -7.4368294
            ],
            [
              112.6597212,
              -7.4367083
            ],
            [
              112.6597373,
              -7.4365758
            ],
            [
              112.6597494,
              -7.4364755
            ],
            [
              112.659765,
              -7.4363629
            ],
            [
              112.6597769,
              -7.4363225
            ],
            [
              112.6598005,
              -7.4362552
            ],
            [
              112.6598456,
              -7.436217
            ],
            [
              112.659903,
              -7.4361683
            ],
            [
              112.6599488,
              -7.4361295
            ],
            [
              112.6599867,
              -7.4360779
            ],
            [
              112.6600108,
              -7.4359524
            ],
            [
              112.660012,
              -7.4359271
            ],
            [
              112.6600378,
              -7.4358793
            ],
            [
              112.6600855,
              -7.4357907
            ],
            [
              112.6601426,
              -7.4356847
            ],
            [
              112.660206,
              -7.4354421
            ],
            [
              112.6605939,
              -7.4346212
            ],
            [
              112.6608989,
              -7.434652
            ],
            [
              112.6617798,
              -7.4348823
            ],
            [
              112.6622344,
              -7.4349797
            ],
            [
              112.6625467,
              -7.4349856
            ],
            [
              112.6627628,
              -7.4349845
            ],
            [
              112.6628047,
              -7.4347805
            ],
            [
              112.6628702,
              -7.4345984
            ],
            [
              112.6629085,
              -7.4344163
            ],
            [
              112.6629441,
              -7.4342471
            ],
            [
              112.662993,
              -7.434015
            ],
            [
              112.6630382,
              -7.4338303
            ],
            [
              112.6630981,
              -7.4335949
            ],
            [
              112.6633429,
              -7.4317455
            ],
            [
              112.6633825,
              -7.4317602
            ],
            [
              112.6635646,
              -7.4317981
            ],
            [
              112.6639492,
              -7.4319177
            ],
            [
              112.6639781,
              -7.4319226
            ],
            [
              112.6639917,
              -7.4319165
            ],
            [
              112.6640053,
              -7.4318958
            ],
            [
              112.6640163,
              -7.4318559
            ],
            [
              112.6640167,
              -7.431812
            ],
            [
              112.6640171,
              -7.4317872
            ],
            [
              112.6640286,
              -7.4317569
            ],
            [
              112.6640381,
              -7.4317401
            ],
            [
              112.664053,
              -7.431721
            ],
            [
              112.664074,
              -7.431712
            ],
            [
              112.664097,
              -7.4317119
            ],
            [
              112.664126,
              -7.4317188
            ],
            [
              112.6641601,
              -7.4317271
            ],
            [
              112.6642141,
              -7.4317344
            ],
            [
              112.6642426,
              -7.4317293
            ],
            [
              112.6643798,
              -7.4316823
            ],
            [
              112.6644179,
              -7.4316832
            ],
            [
              112.66446,
              -7.4317042
            ],
            [
              112.664519,
              -7.4317592
            ],
            [
              112.6645593,
              -7.4317715
            ],
            [
              112.6646263,
              -7.4317873
            ],
            [
              112.6647275,
              -7.4318258
            ],
            [
              112.6647965,
              -7.4318782
            ],
            [
              112.6648205,
              -7.4319076
            ],
            [
              112.6649136,
              -7.431846
            ],
            [
              112.6651504,
              -7.4317201
            ],
            [
              112.6653612,
              -7.4316207
            ],
            [
              112.6655911,
              -7.4315239
            ],
            [
              112.6655283,
              -7.4314181
            ],
            [
              112.6655244,
              -7.4313952
            ],
            [
              112.6655272,
              -7.4313611
            ],
            [
              112.6655389,
              -7.4312977
            ],
            [
              112.6655876,
              -7.4309342
            ],
            [
              112.6655917,
              -7.4308679
            ],
            [
              112.6655896,
              -7.4307586
            ],
            [
              112.6655799,
              -7.4307287
            ],
            [
              112.6655523,
              -7.4306819
            ],
            [
              112.6655072,
              -7.4306305
            ],
            [
              112.6654941,
              -7.4306037
            ],
            [
              112.6654885,
              -7.4305816
            ],
            [
              112.6654877,
              -7.4305574
            ],
            [
              112.6654937,
              -7.430491
            ],
            [
              112.6655975,
              -7.4300871
            ],
            [
              112.6656089,
              -7.4300319
            ],
            [
              112.6656074,
              -7.4299986
            ],
            [
              112.6655958,
              -7.4299561
            ],
            [
              112.6655639,
              -7.4298195
            ],
            [
              112.6655542,
              -7.4297603
            ],
            [
              112.6655109,
              -7.4294525
            ],
            [
              112.665506,
              -7.4294019
            ],
            [
              112.6655056,
              -7.4293007
            ],
            [
              112.665512,
              -7.4292026
            ],
            [
              112.6655361,
              -7.4290105
            ],
            [
              112.665549,
              -7.4288819
            ],
            [
              112.6655499,
              -7.4287805
            ],
            [
              112.6655442,
              -7.4286865
            ],
            [
              112.6655386,
              -7.4286147
            ],
            [
              112.6655199,
              -7.4285492
            ],
            [
              112.6654851,
              -7.4284386
            ],
            [
              112.6654514,
              -7.4282997
            ],
            [
              112.6654388,
              -7.4281804
            ],
            [
              112.6654336,
              -7.4280413
            ],
            [
              112.6654578,
              -7.4279038
            ],
            [
              112.6654973,
              -7.427757
            ],
            [
              112.6655271,
              -7.4276861
            ],
            [
              112.6655939,
              -7.4275516
            ],
            [
              112.6656279,
              -7.427486
            ],
            [
              112.6656533,
              -7.4273907
            ],
            [
              112.6656644,
              -7.4273382
            ],
            [
              112.6656674,
              -7.4272862
            ],
            [
              112.6656627,
              -7.4272199
            ],
            [
              112.6656353,
              -7.4271276
            ],
            [
              112.6656056,
              -7.4270607
            ],
            [
              112.6655606,
              -7.4269911
            ],
            [
              112.6654805,
              -7.4269069
            ],
            [
              112.6653965,
              -7.4268161
            ],
            [
              112.6653242,
              -7.4267493
            ],
            [
              112.6652337,
              -7.4266391
            ],
            [
              112.6651824,
              -7.4265505
            ],
            [
              112.6651599,
              -7.4264877
            ],
            [
              112.6651475,
              -7.4264497
            ],
            [
              112.6651403,
              -7.4264033
            ],
            [
              112.665142,
              -7.4263219
            ],
            [
              112.6651577,
              -7.4261747
            ],
            [
              112.6651701,
              -7.4260889
            ],
            [
              112.6651753,
              -7.4260329
            ],
            [
              112.665174,
              -7.4259981
            ],
            [
              112.6651534,
              -7.4259046
            ],
            [
              112.6650384,
              -7.42592
            ],
            [
              112.6648864,
              -7.4259331
            ],
            [
              112.6648252,
              -7.4259274
            ],
            [
              112.6647753,
              -7.4259136
            ],
            [
              112.6647404,
              -7.4258826
            ],
            [
              112.6647187,
              -7.4258457
            ],
            [
              112.6647042,
              -7.4258016
            ],
            [
              112.6646889,
              -7.4257272
            ],
            [
              112.6646505,
              -7.4255554
            ],
            [
              112.6646383,
              -7.4255132
            ],
            [
              112.6646044,
              -7.4254226
            ],
            [
              112.6645767,
              -7.4253851
            ],
            [
              112.664529,
              -7.4253478
            ],
            [
              112.6643454,
              -7.4252494
            ],
            [
              112.6642332,
              -7.4251979
            ],
            [
              112.6641356,
              -7.4251495
            ],
            [
              112.66406,
              -7.4250955
            ],
            [
              112.663965,
              -7.4250176
            ],
            [
              112.6639254,
              -7.4249938
            ],
            [
              112.6638787,
              -7.4249857
            ],
            [
              112.6638164,
              -7.4249847
            ],
            [
              112.6637508,
              -7.4249979
            ],
            [
              112.6636861,
              -7.4250059
            ],
            [
              112.6635687,
              -7.425001
            ],
            [
              112.6634476,
              -7.424971
            ],
            [
              112.6633903,
              -7.424958
            ],
            [
              112.6633496,
              -7.4249445
            ],
            [
              112.6633318,
              -7.4249277
            ],
            [
              112.6633195,
              -7.424895
            ],
            [
              112.6633192,
              -7.4248298
            ],
            [
              112.6633331,
              -7.4247651
            ],
            [
              112.6633638,
              -7.4246967
            ],
            [
              112.6634356,
              -7.4245785
            ],
            [
              112.6634851,
              -7.4244511
            ],
            [
              112.6635007,
              -7.4243575
            ],
            [
              112.6635107,
              -7.4242844
            ],
            [
              112.6635213,
              -7.4242367
            ],
            [
              112.6635916,
              -7.4241063
            ],
            [
              112.6636574,
              -7.423965
            ],
            [
              112.6636779,
              -7.4238281
            ],
            [
              112.6637073,
              -7.4237456
            ],
            [
              112.6637334,
              -7.4237037
            ],
            [
              112.6638028,
              -7.4236082
            ],
            [
              112.6638617,
              -7.423534
            ],
            [
              112.6638754,
              -7.4235032
            ],
            [
              112.6638799,
              -7.4234659
            ],
            [
              112.6638767,
              -7.4234295
            ],
            [
              112.6638439,
              -7.4233867
            ],
            [
              112.6637537,
              -7.4233767
            ],
            [
              112.6634502,
              -7.4233136
            ],
            [
              112.6629874,
              -7.423168
            ],
            [
              112.6623142,
              -7.4229529
            ],
            [
              112.6614485,
              -7.4226665
            ],
            [
              112.6609773,
              -7.4225181
            ],
            [
              112.6601245,
              -7.4222803
            ],
            [
              112.6599032,
              -7.4221903
            ],
            [
              112.659592,
              -7.4220768
            ],
            [
              112.6591189,
              -7.4219497
            ],
            [
              112.657904,
              -7.4215314
            ],
            [
              112.6576299,
              -7.421446
            ],
            [
              112.6569852,
              -7.4212467
            ],
            [
              112.6569894,
              -7.4212151
            ],
            [
              112.6570196,
              -7.4211174
            ],
            [
              112.6571218,
              -7.4207874
            ],
            [
              112.6573899,
              -7.4197579
            ],
            [
              112.6577381,
              -7.4183738
            ],
            [
              112.6580152,
              -7.4175395
            ],
            [
              112.6584339,
              -7.4162788
            ],
            [
              112.6585182,
              -7.4159734
            ],
            [
              112.658754,
              -7.4151187
            ],
            [
              112.659038,
              -7.4151222
            ],
            [
              112.6592359,
              -7.4151247
            ],
            [
              112.6592677,
              -7.4149963
            ],
            [
              112.659323,
              -7.4147262
            ],
            [
              112.6593896,
              -7.4144159
            ],
            [
              112.6594275,
              -7.4142395
            ],
            [
              112.6594365,
              -7.4141974
            ],
            [
              112.659523,
              -7.4136253
            ],
            [
              112.6596528,
              -7.4127292
            ],
            [
              112.6596755,
              -7.4125342
            ],
            [
              112.6597228,
              -7.4121261
            ],
            [
              112.6598698,
              -7.411294
            ],
            [
              112.6598938,
              -7.4111705
            ],
            [
              112.659846,
              -7.4107486
            ],
            [
              112.6596548,
              -7.4105195
            ],
            [
              112.6595016,
              -7.4103182
            ],
            [
              112.6592187,
              -7.4100561
            ],
            [
              112.6591304,
              -7.4099013
            ],
            [
              112.6589906,
              -7.4097119
            ],
            [
              112.6588317,
              -7.4095625
            ],
            [
              112.6586848,
              -7.4094699
            ],
            [
              112.6584163,
              -7.4093767
            ],
            [
              112.6577388,
              -7.4092018
            ],
            [
              112.6574529,
              -7.4091353
            ],
            [
              112.6570007,
              -7.4090916
            ],
            [
              112.656471,
              -7.409081
            ],
            [
              112.6561152,
              -7.4090799
            ],
            [
              112.6558581,
              -7.4090202
            ],
            [
              112.6558572,
              -7.4090199
            ],
            [
              112.6556505,
              -7.408992
            ],
            [
              112.6552615,
              -7.4090696
            ],
            [
              112.6550576,
              -7.4090528
            ],
            [
              112.655052,
              -7.4090513
            ],
            [
              112.6546701,
              -7.4089473
            ],
            [
              112.6545665,
              -7.4089222
            ],
            [
              112.6540804,
              -7.4087738
            ],
            [
              112.652367,
              -7.4082478
            ],
            [
              112.6517861,
              -7.4081029
            ],
            [
              112.6512556,
              -7.4079788
            ],
            [
              112.6505659,
              -7.4077633
            ],
            [
              112.650367,
              -7.4077013
            ],
            [
              112.6502764,
              -7.4075849
            ],
            [
              112.6502687,
              -7.4075028
            ],
            [
              112.6502356,
              -7.406877
            ],
            [
              112.650163,
              -7.4068068
            ],
            [
              112.6500314,
              -7.4067782
            ],
            [
              112.6493677,
              -7.4067614
            ],
            [
              112.6488077,
              -7.406796
            ],
            [
              112.6478326,
              -7.4068828
            ],
            [
              112.64764,
              -7.4069438
            ],
            [
              112.647527,
              -7.4070503
            ],
            [
              112.6474141,
              -7.407231
            ],
            [
              112.6472172,
              -7.4075968
            ],
            [
              112.6471166,
              -7.4076506
            ],
            [
              112.6469649,
              -7.4076638
            ],
            [
              112.6467151,
              -7.4076566
            ],
            [
              112.6465276,
              -7.4076476
            ],
            [
              112.6451936,
              -7.4073653
            ],
            [
              112.6447045,
              -7.4072601
            ],
            [
              112.6444771,
              -7.4071844
            ],
            [
              112.644097,
              -7.4070633
            ],
            [
              112.6439943,
              -7.4070821
            ],
            [
              112.6438959,
              -7.4071729
            ],
            [
              112.6437879,
              -7.4073355
            ],
            [
              112.6437158,
              -7.407545
            ],
            [
              112.6436477,
              -7.4076514
            ],
            [
              112.6435754,
              -7.4076847
            ],
            [
              112.6434003,
              -7.4076812
            ],
            [
              112.6431094,
              -7.4076286
            ],
            [
              112.6418989,
              -7.407372
            ],
            [
              112.6406717,
              -7.4071308
            ],
            [
              112.6412919,
              -7.4046123
            ],
            [
              112.6410045,
              -7.4048065
            ],
            [
              112.6406267,
              -7.4048199
            ],
            [
              112.640188,
              -7.4047251
            ],
            [
              112.6400345,
              -7.4046857
            ],
            [
              112.6398185,
              -7.4045933
            ],
            [
              112.6395432,
              -7.4043522
            ],
            [
              112.6394327,
              -7.4042229
            ],
            [
              112.6392905,
              -7.403942
            ],
            [
              112.6392289,
              -7.4036619
            ],
            [
              112.6391805,
              -7.4032297
            ],
            [
              112.6391565,
              -7.4030157
            ],
            [
              112.6390926,
              -7.4021355
            ],
            [
              112.6381834,
              -7.4019764
            ],
            [
              112.6364108,
              -7.4016545
            ],
            [
              112.6361962,
              -7.4016091
            ],
            [
              112.6361876,
              -7.4016083
            ],
            [
              112.6356624,
              -7.4015587
            ],
            [
              112.6355547,
              -7.401552
            ],
            [
              112.634819,
              -7.4015064
            ],
            [
              112.6345898,
              -7.4014876
            ],
            [
              112.6344417,
              -7.4014755
            ],
            [
              112.6333446,
              -7.4013858
            ],
            [
              112.6328033,
              -7.4013459
            ],
            [
              112.6327584,
              -7.4013465
            ],
            [
              112.6325911,
              -7.401349
            ],
            [
              112.6322911,
              -7.4013534
            ],
            [
              112.6322497,
              -7.4013528
            ],
            [
              112.6316735,
              -7.4013449
            ],
            [
              112.6311013,
              -7.4013629
            ],
            [
              112.6307956,
              -7.4013748
            ],
            [
              112.6305844,
              -7.4013783
            ],
            [
              112.6304897,
              -7.4013759
            ],
            [
              112.6304031,
              -7.4013736
            ],
            [
              112.6302922,
              -7.4013793
            ],
            [
              112.6296737,
              -7.4013988
            ],
            [
              112.6295022,
              -7.4014074
            ],
            [
              112.6288035,
              -7.4014295
            ],
            [
              112.6284874,
              -7.401415
            ],
            [
              112.6283107,
              -7.4014475
            ],
            [
              112.6282592,
              -7.401457
            ],
            [
              112.6275744,
              -7.401246
            ],
            [
              112.6272584,
              -7.4011909
            ],
            [
              112.6265762,
              -7.4010825
            ],
            [
              112.6262166,
              -7.4010292
            ],
            [
              112.6258105,
              -7.400972
            ],
            [
              112.6254266,
              -7.400922
            ],
            [
              112.6249314,
              -7.4020625
            ],
            [
              112.6246965,
              -7.402727
            ],
            [
              112.6245756,
              -7.4031072
            ],
            [
              112.6243396,
              -7.4033788
            ],
            [
              112.6233697,
              -7.4034912
            ],
            [
              112.6226314,
              -7.4034088
            ],
            [
              112.6217529,
              -7.4033557
            ],
            [
              112.6209891,
              -7.4032804
            ],
            [
              112.6201936,
              -7.4032155
            ],
            [
              112.6198179,
              -7.4031681
            ],
            [
              112.6195703,
              -7.4031237
            ],
            [
              112.6194208,
              -7.4031596
            ],
            [
              112.6193703,
              -7.4031866
            ],
            [
              112.6192731,
              -7.4034991
            ],
            [
              112.6192899,
              -7.403882
            ],
            [
              112.6192825,
              -7.4041985
            ],
            [
              112.6192511,
              -7.4043431
            ],
            [
              112.6179954,
              -7.4041821
            ],
            [
              112.6173766,
              -7.4039047
            ],
            [
              112.6170937,
              -7.4036248
            ],
            [
              112.6165138,
              -7.4030077
            ],
            [
              112.6163651,
              -7.402918
            ],
            [
              112.6162502,
              -7.4028487
            ],
            [
              112.6152707,
              -7.4027326
            ],
            [
              112.6146351,
              -7.4026501
            ],
            [
              112.6140965,
              -7.4025665
            ],
            [
              112.6138125,
              -7.4025422
            ],
            [
              112.6136381,
              -7.4025662
            ],
            [
              112.6135031,
              -7.4025953
            ],
            [
              112.6134945,
              -7.4026535
            ],
            [
              112.6133937,
              -7.4033393
            ],
            [
              112.6133026,
              -7.4040398
            ],
            [
              112.613215,
              -7.4047333
            ],
            [
              112.6131226,
              -7.4054345
            ],
            [
              112.612984,
              -7.4061123
            ],
            [
              112.6129363,
              -7.4067175
            ],
            [
              112.6128641,
              -7.4072433
            ],
            [
              112.6127917,
              -7.4077629
            ],
            [
              112.6126742,
              -7.4085073
            ],
            [
              112.6126437,
              -7.4089202
            ],
            [
              112.6125953,
              -7.409027
            ],
            [
              112.6123132,
              -7.4092454
            ],
            [
              112.6121464,
              -7.4092339
            ],
            [
              112.6119875,
              -7.4092734
            ],
            [
              112.6119417,
              -7.4093545
            ],
            [
              112.6119803,
              -7.4099573
            ],
            [
              112.6120008,
              -7.4102443
            ],
            [
              112.6120016,
              -7.4105094
            ],
            [
              112.6116946,
              -7.4114666
            ],
            [
              112.6116033,
              -7.411763
            ],
            [
              112.6115261,
              -7.4124584
            ],
            [
              112.6113714,
              -7.4136031
            ],
            [
              112.6112967,
              -7.4142377
            ],
            [
              112.6112392,
              -7.4148049
            ],
            [
              112.6111963,
              -7.4152463
            ],
            [
              112.6110828,
              -7.4157259
            ],
            [
              112.6110723,
              -7.4157427
            ],
            [
              112.6108702,
              -7.4159866
            ],
            [
              112.6108428,
              -7.4161387
            ],
            [
              112.6108211,
              -7.4164503
            ],
            [
              112.6107852,
              -7.4170248
            ],
            [
              112.6106837,
              -7.417369
            ],
            [
              112.6106467,
              -7.4179152
            ],
            [
              112.6105851,
              -7.4182738
            ],
            [
              112.6105275,
              -7.4187071
            ],
            [
              112.6105583,
              -7.4190515
            ],
            [
              112.6102937,
              -7.4190493
            ],
            [
              112.6100948,
              -7.4190053
            ],
            [
              112.6099101,
              -7.4189787
            ],
            [
              112.609657,
              -7.4189697
            ],
            [
              112.6093132,
              -7.4189574
            ],
            [
              112.6089702,
              -7.4189579
            ],
            [
              112.6086783,
              -7.4189614
            ],
            [
              112.6083611,
              -7.418954
            ],
            [
              112.6080192,
              -7.418946
            ],
            [
              112.607726,
              -7.4189391
            ],
            [
              112.6068116,
              -7.4189288
            ],
            [
              112.6059479,
              -7.4189136
            ],
            [
              112.6051738,
              -7.4188869
            ],
            [
              112.6044628,
              -7.418872
            ],
            [
              112.6036377,
              -7.4188543
            ],
            [
              112.6028505,
              -7.418833
            ],
            [
              112.6025442,
              -7.4188255
            ],
            [
              112.6026073,
              -7.4190674
            ],
            [
              112.6027425,
              -7.4201834
            ],
            [
              112.6028005,
              -7.4206638
            ],
            [
              112.6028551,
              -7.4211156
            ],
            [
              112.601881,
              -7.4210447
            ],
            [
              112.6017902,
              -7.4215532
            ],
            [
              112.6016993,
              -7.4221606
            ],
            [
              112.6015189,
              -7.4232916
            ],
            [
              112.6013182,
              -7.4242985
            ],
            [
              112.6012852,
              -7.4247371
            ],
            [
              112.6012479,
              -7.4250538
            ],
            [
              112.601199,
              -7.4253343
            ],
            [
              112.6009051,
              -7.4254242
            ],
            [
              112.6002846,
              -7.4255707
            ],
            [
              112.5996043,
              -7.4256702
            ],
            [
              112.5989924,
              -7.4257363
            ],
            [
              112.5984867,
              -7.4257944
            ],
            [
              112.5980842,
              -7.4257972
            ],
            [
              112.5980839,
              -7.4257972
            ],
            [
              112.5976828,
              -7.4256933
            ],
            [
              112.5970234,
              -7.4255129
            ],
            [
              112.5965134,
              -7.4253541
            ],
            [
              112.5958899,
              -7.4251407
            ],
            [
              112.59559,
              -7.4250562
            ],
            [
              112.5951772,
              -7.4249427
            ],
            [
              112.5949406,
              -7.4249096
            ],
            [
              112.5946937,
              -7.4248655
            ],
            [
              112.5946921,
              -7.4248738
            ],
            [
              112.5946929,
              -7.4248698
            ],
            [
              112.5946642,
              -7.425114
            ],
            [
              112.5945784,
              -7.4256611
            ],
            [
              112.5945094,
              -7.4261013
            ],
            [
              112.5944515,
              -7.4264715
            ],
            [
              112.5942489,
              -7.4264653
            ],
            [
              112.5938629,
              -7.4264156
            ],
            [
              112.5933241,
              -7.4263758
            ],
            [
              112.592829,
              -7.4263302
            ],
            [
              112.5923458,
              -7.426286
            ],
            [
              112.591384,
              -7.4265972
            ],
            [
              112.591046,
              -7.426881
            ],
            [
              112.5906196,
              -7.4273302
            ],
            [
              112.5904256,
              -7.4276165
            ],
            [
              112.5902087,
              -7.4278812
            ],
            [
              112.5899731,
              -7.4282836
            ],
            [
              112.5898604,
              -7.4286158
            ],
            [
              112.5896676,
              -7.4294417
            ],
            [
              112.5895938,
              -7.4300849
            ],
            [
              112.5894409,
              -7.4308479
            ],
            [
              112.5892827,
              -7.431543
            ],
            [
              112.5891089,
              -7.4322059
            ],
            [
              112.5889872,
              -7.432713
            ],
            [
              112.5888835,
              -7.4332033
            ],
            [
              112.5887915,
              -7.4334784
            ],
            [
              112.5886882,
              -7.4336316
            ],
            [
              112.5882578,
              -7.4336121
            ],
            [
              112.5879084,
              -7.4335635
            ],
            [
              112.5879008,
              -7.433816
            ],
            [
              112.5878768,
              -7.4344225
            ],
            [
              112.5878434,
              -7.4351589
            ],
            [
              112.5878153,
              -7.4358053
            ],
            [
              112.5877921,
              -7.4363492
            ],
            [
              112.5877711,
              -7.4368433
            ],
            [
              112.5877236,
              -7.4369873
            ],
            [
              112.5876998,
              -7.4376035
            ],
            [
              112.5876883,
              -7.437995
            ],
            [
              112.5882848,
              -7.4379911
            ],
            [
              112.5885946,
              -7.4380686
            ],
            [
              112.5887551,
              -7.4383186
            ],
            [
              112.5887762,
              -7.4384435
            ],
            [
              112.5886011,
              -7.4388673
            ],
            [
              112.5885235,
              -7.43905
            ],
            [
              112.5885533,
              -7.4393692
            ],
            [
              112.5887273,
              -7.4398733
            ],
            [
              112.5887742,
              -7.4405131
            ],
            [
              112.5888935,
              -7.4409117
            ],
            [
              112.5891393,
              -7.4411997
            ],
            [
              112.5896431,
              -7.4415837
            ],
            [
              112.5899403,
              -7.4418639
            ],
            [
              112.5901456,
              -7.4421408
            ],
            [
              112.590235,
              -7.442323
            ],
            [
              112.5903069,
              -7.4424573
            ],
            [
              112.590419,
              -7.4427412
            ],
            [
              112.5904034,
              -7.4430192
            ],
            [
              112.5903157,
              -7.4432405
            ],
            [
              112.5902115,
              -7.4435012
            ],
            [
              112.5902129,
              -7.4436738
            ],
            [
              112.5903086,
              -7.4437834
            ],
            [
              112.5904778,
              -7.4438705
            ],
            [
              112.5906549,
              -7.4438789
            ],
            [
              112.590776,
              -7.4438793
            ],
            [
              112.5909471,
              -7.4439309
            ],
            [
              112.5910221,
              -7.4439935
            ],
            [
              112.5910374,
              -7.4442303
            ],
            [
              112.5910475,
              -7.4444907
            ],
            [
              112.5910631,
              -7.4446951
            ],
            [
              112.5911476,
              -7.4448836
            ],
            [
              112.5912807,
              -7.4449417
            ],
            [
              112.5915866,
              -7.4448873
            ],
            [
              112.5918038,
              -7.4448488
            ],
            [
              112.5919809,
              -7.444828
            ],
            [
              112.5921478,
              -7.444887
            ],
            [
              112.5921881,
              -7.4450241
            ],
            [
              112.5922566,
              -7.4452698
            ],
            [
              112.5922882,
              -7.4453829
            ],
            [
              112.5924118,
              -7.4455517
            ],
            [
              112.5925928,
              -7.4455466
            ],
            [
              112.5928206,
              -7.4454487
            ],
            [
              112.5931413,
              -7.4452364
            ],
            [
              112.5933372,
              -7.4451068
            ],
            [
              112.5934556,
              -7.4450284
            ],
            [
              112.5935311,
              -7.4450346
            ],
            [
              112.5935676,
              -7.4450375
            ],
            [
              112.5935217,
              -7.4455852
            ],
            [
              112.5934338,
              -7.4464952
            ],
            [
              112.5933202,
              -7.4473733
            ],
            [
              112.5932806,
              -7.4478302
            ],
            [
              112.5932747,
              -7.4482944
            ],
            [
              112.5932924,
              -7.44862
            ],
            [
              112.5938367,
              -7.448506
            ],
            [
              112.5941717,
              -7.4484118
            ],
            [
              112.5944045,
              -7.4484018
            ],
            [
              112.5946468,
              -7.4484566
            ],
            [
              112.5951503,
              -7.4486034
            ],
            [
              112.5957934,
              -7.4487682
            ],
            [
              112.5963341,
              -7.4489149
            ],
            [
              112.5968748,
              -7.4490616
            ],
            [
              112.5971268,
              -7.4492
            ],
            [
              112.5973694,
              -7.4493199
            ],
            [
              112.5975278,
              -7.4493472
            ],
            [
              112.5976672,
              -7.4492723
            ],
            [
              112.5979642,
              -7.448974
            ],
            [
              112.5982054,
              -7.4487224
            ],
            [
              112.5984377,
              -7.4485822
            ],
            [
              112.5987628,
              -7.4483396
            ],
            [
              112.5990876,
              -7.4480133
            ],
            [
              112.5993101,
              -7.4477524
            ],
            [
              112.599514,
              -7.447473
            ],
            [
              112.5995857,
              -7.447283
            ],
            [
              112.599704,
              -7.4472601
            ],
            [
              112.599986,
              -7.4472252
            ],
            [
              112.6002258,
              -7.4472553
            ],
            [
              112.6012679,
              -7.4476485
            ],
            [
              112.6019059,
              -7.4478039
            ],
            [
              112.6021736,
              -7.4478651
            ],
            [
              112.6024244,
              -7.4479073
            ],
            [
              112.602727,
              -7.4479191
            ],
            [
              112.603025,
              -7.4478964
            ],
            [
              112.6032281,
              -7.4478828
            ],
            [
              112.6034054,
              -7.4479123
            ],
            [
              112.6035439,
              -7.4479766
            ],
            [
              112.6041355,
              -7.449057
            ],
            [
              112.6043437,
              -7.449259
            ],
            [
              112.6044787,
              -7.4493198
            ],
            [
              112.604625,
              -7.4493874
            ],
            [
              112.6051178,
              -7.4494115
            ],
            [
              112.6054635,
              -7.4494102
            ],
            [
              112.6060162,
              -7.4495055
            ],
            [
              112.6061673,
              -7.4494661
            ],
            [
              112.6063784,
              -7.4492885
            ],
            [
              112.6066024,
              -7.4490979
            ],
            [
              112.6068394,
              -7.4489029
            ],
            [
              112.6070853,
              -7.4487898
            ],
            [
              112.6073657,
              -7.448668
            ],
            [
              112.6077719,
              -7.4486451
            ],
            [
              112.6080356,
              -7.4486656
            ],
            [
              112.6083988,
              -7.448729
            ],
            [
              112.6099516,
              -7.449272
            ],
            [
              112.6103282,
              -7.449311
            ],
            [
              112.6108015,
              -7.4492083
            ],
            [
              112.6111332,
              -7.4491343
            ],
            [
              112.61136,
              -7.4491618
            ],
            [
              112.6116798,
              -7.4491485
            ],
            [
              112.6119058,
              -7.4489618
            ],
            [
              112.6121235,
              -7.4487146
            ],
            [
              112.6122223,
              -7.4486588
            ],
            [
              112.6122588,
              -7.4486382
            ],
            [
              112.6125221,
              -7.4485553
            ],
            [
              112.6134207,
              -7.4484916
            ],
            [
              112.6136496,
              -7.4484563
            ],
            [
              112.6138266,
              -7.4484125
            ],
            [
              112.6140902,
              -7.4484073
            ],
            [
              112.6144274,
              -7.4484535
            ],
            [
              112.6149004,
              -7.4485827
            ],
            [
              112.6154081,
              -7.4486448
            ],
            [
              112.615886,
              -7.4485978
            ],
            [
              112.6163675,
              -7.4480655
            ],
            [
              112.6167078,
              -7.4476617
            ],
            [
              112.6169527,
              -7.4474343
            ],
            [
              112.617203,
              -7.447278
            ],
            [
              112.617392,
              -7.4472066
            ],
            [
              112.6178877,
              -7.4469308
            ],
            [
              112.6184535,
              -7.4464141
            ],
            [
              112.6188825,
              -7.445997
            ],
            [
              112.6190996,
              -7.445864
            ],
            [
              112.6195772,
              -7.4458103
            ],
            [
              112.6200831,
              -7.4457376
            ],
            [
              112.6202532,
              -7.4456615
            ],
            [
              112.6207659,
              -7.4451965
            ],
            [
              112.62122,
              -7.4449194
            ],
            [
              112.6216672,
              -7.4448209
            ],
            [
              112.6218986,
              -7.4448499
            ],
            [
              112.6222799,
              -7.4450867
            ],
            [
              112.6226091,
              -7.445361
            ],
            [
              112.622751,
              -7.4453978
            ],
            [
              112.6230787,
              -7.4452476
            ],
            [
              112.6232128,
              -7.445195
            ],
            [
              112.623377,
              -7.4452317
            ],
            [
              112.623549,
              -7.4453353
            ],
            [
              112.6245398,
              -7.4461532
            ],
            [
              112.6247834,
              -7.4461567
            ],
            [
              112.6249991,
              -7.4461251
            ],
            [
              112.6252968,
              -7.4458844
            ],
            [
              112.6255401,
              -7.4455823
            ],
            [
              112.6256966,
              -7.4454257
            ],
            [
              112.625856,
              -7.4453408
            ],
            [
              112.6262458,
              -7.4452187
            ],
            [
              112.6264932,
              -7.4451363
            ],
            [
              112.6270436,
              -7.4449626
            ],
            [
              112.627479,
              -7.444952
            ],
            [
              112.6277298,
              -7.4449287
            ],
            [
              112.6280571,
              -7.4448688
            ],
            [
              112.6282055,
              -7.4447796
            ],
            [
              112.6283476,
              -7.4446093
            ],
            [
              112.6285725,
              -7.4442591
            ],
            [
              112.6285717,
              -7.4442146
            ],
            [
              112.628595,
              -7.4438291
            ],
            [
              112.6287193,
              -7.44361
            ],
            [
              112.6291521,
              -7.4431207
            ],
            [
              112.6293279,
              -7.4428914
            ],
            [
              112.6295933,
              -7.4425183
            ],
            [
              112.6297163,
              -7.4424372
            ],
            [
              112.6298955,
              -7.4423847
            ],
            [
              112.6300631,
              -7.4423818
            ],
            [
              112.6301294,
              -7.4423311
            ],
            [
              112.6301766,
              -7.4423303
            ],
            [
              112.6302499,
              -7.442333
            ],
            [
              112.6305112,
              -7.442367
            ],
            [
              112.6307004,
              -7.4424607
            ],
            [
              112.6309941,
              -7.4426923
            ],
            [
              112.6312571,
              -7.4428701
            ],
            [
              112.6314949,
              -7.4429978
            ],
            [
              112.631914,
              -7.4432882
            ],
            [
              112.6320993,
              -7.4434695
            ],
            [
              112.6323793,
              -7.4437989
            ],
            [
              112.6324958,
              -7.4439358
            ],
            [
              112.6326032,
              -7.4441937
            ],
            [
              112.6326753,
              -7.44448
            ],
            [
              112.6327429,
              -7.4449387
            ],
            [
              112.632757,
              -7.4452035
            ],
            [
              112.6327325,
              -7.4456583
            ],
            [
              112.6327144,
              -7.4461876
            ],
            [
              112.6327531,
              -7.4470748
            ],
            [
              112.6328385,
              -7.4471709
            ],
            [
              112.6335056,
              -7.4477849
            ],
            [
              112.6336694,
              -7.4478467
            ],
            [
              112.6346636,
              -7.4482151
            ],
            [
              112.6348268,
              -7.4482949
            ],
            [
              112.63512,
              -7.4484383
            ],
            [
              112.6356401,
              -7.4487747
            ],
            [
              112.6360273,
              -7.4490126
            ],
            [
              112.6364924,
              -7.4492177
            ],
            [
              112.6366808,
              -7.4492657
            ],
            [
              112.6369989,
              -7.4492739
            ],
            [
              112.6375136,
              -7.4492533
            ],
            [
              112.637683,
              -7.4492239
            ],
            [
              112.6377705,
              -7.4492088
            ],
            [
              112.6386723,
              -7.4490384
            ],
            [
              112.6391349,
              -7.4489551
            ],
            [
              112.6394854,
              -7.4489003
            ],
            [
              112.6404044,
              -7.4488095
            ],
            [
              112.6407477,
              -7.4488569
            ],
            [
              112.6410079,
              -7.4489391
            ],
            [
              112.6413444,
              -7.4491266
            ],
            [
              112.6416596,
              -7.4493761
            ],
            [
              112.6419201,
              -7.4496234
            ],
            [
              112.6420657,
              -7.4496998
            ],
            [
              112.6422574,
              -7.4497551
            ],
            [
              112.6433277,
              -7.4500248
            ],
            [
              112.6433731,
              -7.4500362
            ],
            [
              112.6448893,
              -7.4504023
            ],
            [
              112.6454486,
              -7.4505235
            ],
            [
              112.6455735,
              -7.4505517
            ],
            [
              112.6460493,
              -7.4506592
            ],
            [
              112.6467018,
              -7.4508431
            ],
            [
              112.6471245,
              -7.4510133
            ],
            [
              112.6472812,
              -7.4511225
            ],
            [
              112.6472839,
              -7.4511679
            ],
            [
              112.6473364,
              -7.4515991
            ],
            [
              112.6473947,
              -7.4517747
            ],
            [
              112.6475155,
              -7.4519027
            ],
            [
              112.6476664,
              -7.4519763
            ],
            [
              112.6480049,
              -7.4520493
            ],
            [
              112.6487867,
              -7.452227
            ],
            [
              112.6493139,
              -7.4523816
            ],
            [
              112.6496409,
              -7.4524775
            ],
            [
              112.6497331,
              -7.4525046
            ],
            [
              112.649907,
              -7.4526256
            ],
            [
              112.6499205,
              -7.4526382
            ],
            [
              112.6501416,
              -7.4528445
            ],
            [
              112.6502479,
              -7.4530023
            ],
            [
              112.6503852,
              -7.4531886
            ],
            [
              112.6505596,
              -7.4532924
            ],
            [
              112.6507951,
              -7.4533827
            ],
            [
              112.6515737,
              -7.4535922
            ],
            [
              112.6523597,
              -7.4538037
            ],
            [
              112.6534378,
              -7.4539453
            ],
            [
              112.6541422,
              -7.4540042
            ],
            [
              112.6545182,
              -7.454051
            ],
            [
              112.654996,
              -7.4541509
            ],
            [
              112.6553656,
              -7.4542014
            ],
            [
              112.6556284,
              -7.4542373
            ],
            [
              112.6564952,
              -7.4544289
            ],
            [
              112.6568364,
              -7.454493
            ],
            [
              112.6570633,
              -7.4545356
            ],
            [
              112.6575583,
              -7.4546287
            ],
            [
              112.6575787,
              -7.4546325
            ],
            [
              112.6590334,
              -7.4549622
            ],
            [
              112.6595324,
              -7.4550765
            ],
            [
              112.6606157,
              -7.4553072
            ]
          ]
        ]
      },
      "id": "relation/9680040"
    }
  ]
}